CODICE_SCUOLA;denominazione;tipoDiIstruzione;CODICE_ISTITUTO;denominazioneIstituto;indirizzo;comune;provincia;cap;email;telefono;latitudine;longitudine;scuolaStatale;scuolaParitaria
RMMM85801L;"""BRUNO BUOZZI""";MM;RMIC85800G;IC VIA CASSIA 1694;VIA CASSIA, 1694 ROMA;ROMA;ROMA;00123;RMIC85800G@istruzione.it;0630890110;42.00569;12.38021;1;0
RMMM8FB018;"""DARIO PAGANO""";MM;RMIC8FB007;ICS HYPATIA;VIA POSEIDONE,66;ROMA;ROMA;00133;RMIC8FB007@istruzione.it;062014794;41.8701;12.61979;1;0
RMMM825019;"""DUCA D'AOSTA""";MM;RMIC825008;MARCELLO MASTROIANNI;VIA        ORVIETO             45;ROMA;ROMA;00182;RMIC825008@istruzione.it;067015931;41.88423;12.51735;1;0
RMMM818016;"""E. Q. VISCONTI""";MM;RMIC818005;"""ENNIO QUIRINO VISCONTI""";VIA        QUATTRO NOVEMBRE    95;ROMA;ROMA;00186;RMIC818005@istruzione.it;066791368;41.89621;12.48573;1;0
RMMM86001L;"""EDOARDO AMALDI""";MM;RMIC86000G;VIA CASSIA KM. 18,7;VIA G. GALLINA 28/30;ROMA;ROMA;00123;RMIC86000G@istruzione.it;0630892637;42.0132;12.37442;1;0
RMMM8EV015;"""G.B. PIRANESI""";MM;RMIC8EV004;I.C. VIA DAL VERME;VIA        L. DAL VERME     109;ROMA;ROMA;00176;RMIC8EV004@istruzione.it;0621701558;41.88869;12.53917;1;0
RMMM8GX012;"""G.G.BELLI""";MM;RMIC8GX001;IC PARCO DELLA VITTORIA;VIA A. MORDINI, 19;ROMA;ROMA;00195;RMIC8GX001@istruzione.it;0637500227;41.91359;12.46272;1;0
RMMM8CQ01B;"""GIOACCHINO ROSSINI""";MM;RMIC8CQ00A;IC VILLAGGIO PRENESTINO;VIA      FOSSO DELL'OSA      503;ROMA;ROMA;00132;RMIC8CQ00A@istruzione.it;062261058;41.90862;12.68138;1;0
RMTD00851A;"""LEOPOLDO PIRELLI""  RAG. SIRIO";TD;RMTD008011;"IIS ""L. PIRELLI"" ECONOMICO - LINGUISTICO";VIA ROCCA DI PAPA, 113;ROMA;ROMA;00179;RMIS00800P@istruzione.it;06121122305;41.86762;12.53334;1;0
RMPQ010009;"""MONTESSORI""";PQ;RMPQ010009;"""MONTESSORI""";VIA        LIVENZA 8;ROMA;ROMA;00198;RMPQ010009@istruzione.it;06 121124505;41.91355;12.49539;1;0
RMMM86501Q;"""NANDO MARTELLINI""";MM;RMIC86500P;NANDO MARTELLINI;VIA        VANNI              5;ROMA;ROMA;00166;RMIC86500P@istruzione.it;0666180851;41.88274;12.3592;1;0
RMMM8GU01E;"""PAOLO STEFANELLI""";MM;RMIC8GU00D;I.C. PAOLO STEFANELLI;VIA PESTALOZZI, 5;ROMA;ROMA;00168;RMIC8GU00D@istruzione.it;063052359;41.93545;12.42651;1;0
RMMM8EZ01C;"""SAN BENEDETTO""";MM;RMIC8EZ00B;VIA DEI SESAMI;VIA DEI SESAMI,20;ROMA;ROMA;00172;RMIC8EZ00B@istruzione.it;062313012;41.88401;12.57234;1;0
RMMM8FF01G;"""SETTIMIA SPIZZICHINO""";MM;RMIC8FF00E;IC POGGIALI-SPIZZICHINO;VIA  SALVATORE DI GIACOMO 13;ROMA;ROMA;00142;RMIC8FF00E@istruzione.it;065405380;41.84493;12.48571;1;0
RMRH01000T;"""TOR CARBONE - ALESSANDRO NARDUCCI""";RH;RMRH01000T;"""TOR CARBONE - ALESSANDRO NARDUCCI""";VIA DI TOR CARBONE, 53;ROMA;ROMA;00178;RMRH01000T@istruzione.it;062600;41.83307;12.53656;1;0
RMMM8CZ017;"""VIA CAROTENUTO 30""";MM;RMIC8CZ006;"""VIA CAROTENUTO 30""";VIA MARIO CAROTENUTO 30;ROMA;ROMA;00125;RMIC8CZ006@istruzione.it;065258824;41.78971;12.39178;1;0
RMRI03601E;A. DIAZ;RI;RMIS03600V;I.I.S.  J. PIAGET-V. NOBILIORE - DIAZ;VIA        ACIREALE 8;ROMA;ROMA;00182;RMIS03600V@istruzione.it;0612112226;41.88427;12.5167;1;0
RMMM8BN01N;A. ROSMINI;MM;RMIC8BN00L;"""DON ROBERTO SARDELLI""";VIA GIORGIO DEL VECCHIO 24;ROMA;ROMA;00166;RMIC8BN00L@istruzione.it;;41.89792;12.41751;1;0
RMTDOO500A;A. RUIZ I.T. A.F.M.;TD;RMTDOO500A;A. RUIZ I.T. A.F.M.;VIA DELL'IMBRECCIATO, 127;ROMA;ROMA;00100;istitutoparitarioruiz@virgilio.it;06/5584948     ;41.84992;12.44566;0;1
RMPM5R5008;A. RUIZ LICEO DELLE SCIENZE UMANE;PM;RMPM5R5008;A. RUIZ LICEO DELLE SCIENZE UMANE;VIA DELL'IMBRECCIATO 127;ROMA;ROMA;00100;istitutoparitarioruiz@virgilio.it;065584948      ;;;0;1
RMPLO35009;A. RUIZ LICEO LINGUISTICO;PL;RMPLO35009;A. RUIZ LICEO LINGUISTICO;VIA DELL'IMBRECCIATO, 127;ROMA;ROMA;00100;istitutoparitarioruiz@virgilio.it;06/5584948     ;41.84992;12.44566;0;1
RMPS72500B;A. RUIZ LICEO SCIENTIFICO;PS;RMPS72500B;A. RUIZ LICEO SCIENTIFICO;VIA DELL'IMBRECCIATO, 127;ROMA;ROMA;00100;istitutoparitarioruiz@virgilio.it;065584948      ;41.84992;12.44566;0;1
RMPC17000D;ALBERTELLI;PC;RMPC17000D;ALBERTELLI;VIA    D. MANIN 72;ROMA;ROMA;00185;RMPC17000D@istruzione.it;0612112752;41.89943;12.49981;1;0
RMMM8FP01B;ALESSANDRO MAGNO;MM;RMIC8FP00A;ALESSANDRO MAGNO;VIA STESICORO, 115;ROMA;ROMA;00125;RMIC8FP00A@istruzione.it;0652360537;41.76164;12.36959;1;0
RMRF9P500F;ALFRED NOBEL SRL;RF;RMRF9P500F;ALFRED NOBEL SRL;v. Vito Giuseppe Galati, 99/b;ROMA;ROMA;00155;ISTITUTOALFREDNOBEL@GMAIL.COM;0640802091     ;41.91224;12.57028;0;1
RMTF145002;ALFRED NOBEL SRL;TF;RMTF145002;ALFRED NOBEL SRL;VIA VITO GIUSEPPE GALATI 99;ROMA;ROMA;00155;ISTITUTOALFREDNOBEL@GMAIL.COM;0640802091     ;41.91184;12.57069;0;1
RMRH04000N;AMERIGO VESPUCCI;RH;RMRH04000N;AMERIGO VESPUCCI;VIA FACCHINETTI, 42;ROMA;ROMA;00159;RMRH04000N@istruzione.it;0643599154;41.90775;12.54745;1;0
RMPC030006;ANCO MARZIO;PC;RMPC030006;ANCO MARZIO;VIA CAPO PALINURO, 72;ROMA;ROMA;00122;RMPC030006@istruzione.it;06121122245;41.73761;12.28746;1;0
RMMM81501P;ANGELICA BALABANOFF;MM;RMIC81500N;"""ANGELICA BALABANOFF""";VIA  A. BALABANOFF, 62;ROMA;ROMA;00155;RMIC81500N@istruzione.it;064070038;41.91662;12.57386;1;0
RMTD67500X;ANIENE - AMMINISTRAZIONE, FINANZA E MARKETING - SIA - RIM;TD;RMTD67500X;ANIENE - AMMINISTRAZIONE, FINANZA E MARKETING - SIA - RIM;VIA TIBURTINA 994;ROMA;ROMA;00156;direzione@istitutoaniene.it;0695020221     ;41.92831;12.57768;0;1
RMTL08500Q;ANIENE - COSTRUZIONI, AMBIENTE E TERRITORIO;TL;RMTL08500Q;ANIENE - COSTRUZIONI, AMBIENTE E TERRITORIO;VIA TIBURTINA, 994;ROMA;ROMA;00156;direzione@istitutoaniene.it;0695020221     ;41.9287;12.57668;0;1
RMTFNG5000;ANIENE - SISTEMA MODA -MICOL FONTANA;TF;RMTFNG5000;ANIENE - SISTEMA MODA -MICOL FONTANA;Via Tiburtina, 994;ROMA;ROMA;00156;direzione@istitutoaniene.it;06 95020221    ;41.9283;12.57821;0;1
RMTN8V500Q;ANIENE - TURISMO;TN;RMTN8V500Q;ANIENE - TURISMO;VIA TIBURTINA, 994;ROMA;ROMA;00156;DIREZIONE@ISTITUTOANIENE.IT;0695020221     ;41.9287;12.57668;0;1
RMTAPV5005;ANIENE -AGRARIA AGROALIMENTARE E AGROINDUSTRIA;TA;RMTAPV5005;ANIENE -AGRARIA AGROALIMENTARE E AGROINDUSTRIA;VIA TIBURTINA, 994;ROMA;ROMA;00156;direzione@istitutoaniene.it;0695020221     ;41.92875;12.57681;0;1
RM1MMF500S;ANNA MICHELI;MM;RM1MMF500S;ANNA MICHELI;V. LUDOVICA ALBERTONI 41;ROMA;ROMA;00152;segreteria@annamicheli.it;06538292       ;41.87856;12.44391;0;1
RMMM8B801R;ANTONIO GRAMSCI;MM;RMIC8B800Q;I.C. ANTONIO GRAMSCI;VIA        AFFOGALASINO        120;ROMA;ROMA;00148;RMIC8B800Q@istruzione.it;066530601;41.85398;12.43506;1;0
RMPS010004;ANTONIO LABRIOLA;PS;RMPS010004;ANTONIO LABRIOLA;VIA        CAPO SPERONE, 50;ROMA;ROMA;00122;RMPS010004@istruzione.it;121128005;41.74061;12.28778;1;0
RMPS094019;ARCHIMEDE;PS;RMIS09400V;PACINOTTI - ARCHIMEDE;VIA MONTAIONE 15;ROMA;ROMA;00139;RMIS09400V@istruzione.it;06121123545;41.949;12.51417;1;0
RMMM848012;ARIOSTO;MM;RMIC848001;VIA L. RIZZO, 1;VIA        L. RIZZO            1;ROMA;ROMA;00136;RMIC848001@istruzione.it;0639720006;41.90984;12.44742;1;0
RMPS50000T;ARISTOTELE;PS;RMPS50000T;ARISTOTELE;VIA DEI SOMMOZZATORI 50;ROMA;ROMA;00143;RMPS50000T@istruzione.it;06121123600;41.82201;12.48363;1;0
RMTF02000R;ARMELLINI;TF;RMTF02000R;ARMELLINI;VIA        PLACIDO RICCARDI 13;ROMA;ROMA;00146;RMTF02000R@istruzione.it;06121127360;41.85604;12.47638;1;0
RMPC04000R;AUGUSTO;PC;RMPC04000R;AUGUSTO;VIA        GELA 14;ROMA;ROMA;00182;RMPC04000R@istruzione.it;06121124905;41.87821;12.51973;1;0
RMPS030009;AVOGADRO;PS;RMPS030009;AVOGADRO;VIA        BRENTA 26;ROMA;ROMA;00198;RMPS030009@istruzione.it;06121125905;41.91804;12.50302;1;0
RMPSI25002;Aurora Institute High School - Liceo Linguistico ;PS;RMPSI25002;Aurora Institute High School - Liceo Linguistico ;Via Giulio Bertoni n.76;ROMA;ROMA;00124;aurorainstitute1@gmail.com;;;;0;1
RMMM86101C;BATTISTI;MM;RMIC86100B;I.C.INDRO MONTANELLI;VIA        DIVISIONE TORINO    119;ROMA;ROMA;00143;RMIC86100B@istruzione.it;065010536;41.82066;12.48706;1;0
RMMM8GG012;BELLINI VINCENZO;MM;RMIC8GG001;IC PARCO DEGLI ACQUEDOTTI;CIRC.NE TUSCOLANA, 59/61;ROMA;ROMA;00174;RMIC8GG001@istruzione.it;067221744;41.84977;12.56579;1;0
RMPS11301D;BENEDETTO CROCE;PS;RMIS113003;CROCE-ALERAMO;VIALE BATTISTA BARDANZELLU 7;ROMA;ROMA;00155;RMIS113003@istruzione.it;06121122925;41.91482;12.57109;1;0
RMPC05000B;BENEDETTO DA NORCIA;PC;RMPC05000B;BENEDETTO DA NORCIA;VIA SARACINESCO N. 18;ROMA;ROMA;00171;RMPC05000B@istruzione.it;06121123125;41.88968;12.55863;1;0
RMPC48000P;BERTRAND RUSSELL;PC;RMPC48000P;BERTRAND RUSSELL;VIA TUSCOLANA 208;ROMA;ROMA;00182;RMPC48000P@istruzione.it;06121123005;41.87883;12.52276;1;0
RMTF123016;BIAGIO PASCAL;TF;RMIS12300N;BIAGIO PASCAL;VIA        BREMBIO 97;ROMA;ROMA;00188;RMIS12300N@istruzione.it;06121124205;41.9957;12.48844;1;0
RMTL03401X;BOAGA;TL;RMIS034007;GIORGIO  AMBROSOLI;VIALE  DELLA  PRIMAVERA, 207;ROMA;ROMA;00172;RMIS034007@istruzione.it;062415139;41.88204;12.56099;1;0
RMMM8BK016;BORSI;MM;RMIC8BK005;"I.C.S.""VIA TIBURTINA ANTICA,25""";VIA        TIBURTINA ANTICA    25;ROMA;ROMA;00185;RMIC8BK005@istruzione.it;06491777;41.89746;12.512;1;0
RMTD03401D;BOTTICELLI;TD;RMIS034007;GIORGIO  AMBROSOLI;VIALE   DELLA   PRIMAVERA,  207;ROMA;ROMA;00172;RMIS034007@istruzione.it;06121122725;41.88204;12.56099;1;0
RMMM8GK01V;BRAMANTE;MM;RMIC8GK00T;I.C. LARGO S.PIO V;L.GO S.PIO V  20;ROMA;ROMA;00165;RMIC8GK00T@istruzione.it;0666000096;41.89601;12.43172;1;0
RMMM819012;BUONARROTI;MM;RMIC819001;REGINA ELENA;VIA PUGLIE, 31;ROMA;ROMA;00187;RMIC819001@istruzione.it;0642814655;41.91019;12.49535;1;0
RMTN124513;C. COLOMBO SERALE;TN;RMTN12401N;CRISTOFORO COLOMBO;VIA PANISPERNA, 255;ROMA;ROMA;00184;RMIS12400D@istruzione.it;064818772;41.89612;12.48954;1;0
RMPM040001;CAETANI;PM;RMPM040001;CAETANI;VIALE      MAZZINI 36;ROMA;ROMA;00195;RMPM040001@istruzione.it;063242836;41.91667;12.46453;1;0
RMMM8FN01Q;CAIO DUILIO;MM;RMIC8FN00P;IC VIALE VEGA;V.LE VEGA, 91;ROMA;ROMA;00122;RMIC8FN00P@istruzione.it;0656304550;41.72538;12.2965;1;0
RMPS05000E;CANNIZZARO;PS;RMPS05000E;CANNIZZARO;VIALE DELLA CIVILTA'DEL LAVORO 2/D;ROMA;ROMA;00144;RMPS05000E@istruzione.it;06121126585;41.8363;12.46603;1;0
RMMM805014;CARLO CATTANEO;MM;RMIC805003;"""ELSA MORANTE""";VIA ZABAGLIA, 27/A;ROMA;ROMA;00153;RMIC805003@istruzione.it;065740751;41.8771;12.47611;1;0
RMMM8GE01A;CARLO URBANI;MM;RMIC8GE009;IC VIA CENEDA;VIA CENEDA 26- SUCCURSALE: CAMILLA 75;ROMA;ROMA;00183;RMIC8GE009@istruzione.it;0677209730;41.8806;12.51145;1;0
RMPM03301V;CARLO URBANI;PM;RMIS03300B;CARLO URBANI;VIA DELL'IDROSCALO;ROMA;ROMA;00121;RMIS03300B@istruzione.it;06121126360;;;1;0
RMTF11401B;CARTESIO;TF;RMIS11400V;EVANGELISTA TORRICELLI;VIA CESARE LOMBROSO 120;ROMA;ROMA;00168;RMIS11400V@istruzione.it;06121123400;41.93333;12.41435;1;0
RMPSAD500D;CAVANIS;PS;RMPSAD500D;CAVANIS;Via Casilina 600;ROMA;ROMA;00177;liceo.cavanis@gmail.com;0686927541     ;41.87737;12.54928;0;1
RMPS060005;CAVOUR;PS;RMPS060005;CAVOUR;VIA        DELLE CARINE 1;ROMA;ROMA;00184;RMPS060005@istruzione.it;06121122045;41.89275;12.49129;1;0
RMTD10801T;CECCHERELLI;TD;RMIS10800G;VIA SILVESTRI, 301;VIA DI BRAVETTA 383;ROMA;ROMA;00164;RMIS10800G@istruzione.it;06 121124004;41.87567;12.42722;1;0
RMMM8GH01T;CECILIO SECONDO;MM;RMIC8GH00R;IC VIA DELL'AEROPORTO;VIA DELL'AEROPORTO 115;ROMA;ROMA;00175;RMIC8GH00R@istruzione.it;067615957;41.8636;12.55691;1;0
RMMM856011;CERVI F.LLI;MM;RMIC85600X;I.C. FRATELLI CERVI;VIA        CASETTA MATTEI      279;ROMA;ROMA;00148;RMIC85600X@istruzione.it;066555010;41.8611;12.4198;1;0
RM1M04300B;CESARE BARONIO;MM;RM1M04300B;CESARE BARONIO;VIA DELLE SETTE CHIESE 109;ROMA;ROMA;00145;SEGRETERIA@SCUOLAMEDIACESAREBARONIO.ORG;065110358      ;41.8603;12.49353;0;1
RMRV089015;CINETV ROSSELLINI SERV. CULT. E SPETT.;RV;RMIS08900B;"CINE TV ""ROBERTO ROSSELLINI""";VIA DELLA VASCA NAVALE 58;ROMA;ROMA;00146;RMIS08900B@istruzione.it;06121125840;41.85583;12.46875;1;0
RMPS03500C;COMUNITA' EBRAICA DI ROMA L.S.SP. LEVI;PS;RMPS03500C;COMUNITA' EBRAICA DI ROMA L.S.SP. LEVI;VIA PORTICO D'OTTAVIA 73;ROMA;ROMA;00186;liceo.levi@romaebraica.it;066833884      ;41.89316;12.47687;0;1
RM1M057009;COMUNITA' EBRAICA DI ROMA SC.A.SACERDOTI;MM;RM1M057009;COMUNITA' EBRAICA DI ROMA SC.A.SACERDOTI;VIA PORTICO D'OTTAVIA, 73;ROMA;ROMA;00186;medie.sacerdoti@romaebraica.it;066879673      ;41.89316;12.47687;0;1
RMPM00500N;COMUNITA' EBRAICA ROMA RENZO LEVI- LICEO SCIENZE SOCIALI;PM;RMPM00500N;COMUNITA' EBRAICA ROMA RENZO LEVI- LICEO SCIENZE SOCIALI;DA INSERIRE;ROMA;ROMA;00186;liceo.levi@romaebraica.it;06  6833884    ;41.89259;12.47752;0;1
RMPCT9500V;CONGREGAZIONE DELLE PICCOLE ANCELLE DEL SACRO CUORE;PC;RMPCT9500V;CONGREGAZIONE DELLE PICCOLE ANCELLE DEL SACRO CUORE;VIA DELLA TENUTA DI SANT'AGATA 1;ROMA;ROMA;00135;ISTITUTOSACROCUORE@PICCOLEANCELLE.COM;063054767      ;;;0;1
RMMM67000C;CPIA 1;MM;RMMM67000C;CPIA 1;VIA C.A CORTINA, 70;ROMA;ROMA;00159;RMMM67000C@istruzione.it;0643598619;41.9026;12.55073;1;0
RMMM671008;CPIA 2 - ITALO CALVINO;MM;RMMM671008;CPIA 2 - ITALO CALVINO;VIA VITAGLIANO PONTI, 30;ROMA;ROMA;00169;RMMM671008@istruzione.it;06261801;41.86974;12.5786;1;0
RMMM672004;CPIA 3;MM;RMMM672004;CPIA 3;CORSO VITTORIO EMANUELE II, 217;ROMA;ROMA;00186;RMMM672004@istruzione.it;06121125421;41.89757;12.47043;1;0
RMMM67300X;CPIA 4;MM;RMMM67300X;CPIA 4;VIA PALESTRO N. 38;ROMA;ROMA;00185;RMMM67300X@istruzione.it;064453994;41.90516;12.50428;1;0
RMTN12401N;CRISTOFORO COLOMBO;TN;RMIS12400D;IIS CRISTOFORO COLOMBO;VIA PANISPERNA, 255;ROMA;ROMA;00184;RMIS12400D@istruzione.it;06121128205;41.8961;12.48953;1;0
RMMM8BQ019;D.R. CHIODI;MM;RMIC8BQ008;CHIODI DIONIGIO ROMEO;VIA APPIANO, 15;ROMA;ROMA;00136;RMIC8BQ008@istruzione.it;0639736694;41.91301;12.44047;1;0
RMTD081013;DA VERRAZANO;TD;RMIS08100R;ENZO FERRARI;VIA  CONTARDO FERRINI  N. 83- TEL. 06 121122505;ROMA;ROMA;00173;RMIS08100R@istruzione.it;06121122505;41.85735;12.57118;1;0
RMSL3M5001;DAF Dance Art Faculty;SL;RMSL3M5001;DAF Dance Art Faculty;Via di Pietralata 159/A;ROMA;ROMA;00158;lomelefeliciana@gmail.com;;41.92613;12.53921;0;1
RMMM82901L;DALLA CHIESA;MM;RMIC82900G;I.C. CARLO ALBERTO DALLA CHIESA;VIA MARIO RIGAMONTI 10;ROMA;ROMA;00142;RMIC82900G@istruzione.it;065036231;41.83721;12.50516;1;0
RMMM81401V;DANIELE MANIN;MM;RMIC81400T;DANIELE MANIN;VIA DELL'OLMATA, 6;ROMA;ROMA;00184;RMIC81400T@istruzione.it;0648907867;41.89653;12.49812;1;0
RMMM84501E;DANTE ALIGHIERI;MM;RMIC84500D;DANTE ALIGHIERI;VIA CASSIODORO 2/A;ROMA;ROMA;00193;RMIC84500D@istruzione.it;066878011;41.9065;12.46735;1;0
RMPC128014;DANTE ALIGHIERI;PC;RMIS12800R;"POLO LICEALE ""ALIGHIERI - CARAVILLANI""";VIA ENNIO QUIRINO VISCONTI 13;ROMA;ROMA;00193;RMIS12800R@istruzione.it;06121124725;41.90815;12.47132;1;0
RMRI11901N;DE AMICIS CATTANEO;RI;RMIS119002;DE AMICIS - CATTANEO;VIA         GALVANI 6;ROMA;ROMA;00153;RMIS119002@istruzione.it;121126645;41.87803;12.47752;1;0
RMSL097524;DE CHIRICO - PERC. II LIV.;SL;RMSL09701N;I.I.S. CONFALONIERI DE CHIRICO;;ROMA;ROMA;;RMIS09700A@istruzione.it;;41.92283;12.50143;1;0
RMMM86701B;DE FILIPPO;MM;RMIC86700A;"STATALE ""PUBLIO VIBIO MARIANO""";VIA  AL SESTO MIGLIO     78/A;ROMA;ROMA;00189;RMIC86700A@istruzione.it;0633264721;41.96964;12.44379;1;0
RMMM8CV01X;DELEDDA;MM;RMIC8CV00V;"""GINO STRADA""";VIA FORTIFIOCCA, 84;ROMA;ROMA;00179;RMIC8CV00V@istruzione.it;067887194;41.87064;12.52251;1;0
RMRI03650V;DIAZ;RI;RMRI03601E;A. DIAZ;VIA TARANTO;ROMA;ROMA;00182;RMIS03600V@istruzione.it;;;;1;0
RMMM869013;DOMENICO PURIFICATO;MM;RMIC869002;DOMENICO PURIFICATO;VIA DELLA  FONTE MERAVIGLIOSA  79;ROMA;ROMA;00143;RMIC869002@istruzione.it;065040904;41.82541;12.50832;1;0
RMRA06101G;DOMIZIA LUCILLA;RA;RMIS06100G;VIA DOMIZIA LUCILLA;VIA  DOMIZIA  LUCILLA , 76;ROMA;ROMA;00136;RMIS06100G@istruzione.it;0639729391;41.90694;12.44102;1;0
RMMM8G501A;DON GIUSEPPE MOROSINI;MM;RMIC8G5009;IC VIA MAFFI;VIA VAL FAVARA,31;ROMA;ROMA;00168;RMIC8G5009@istruzione.it;0635504392;41.92421;12.41672;1;0
RMMM8E5015;DONATELLO;MM;RMIC8E5004;I.C. DONATELLO;VIA        GROTTE CELONI       20;ROMA;ROMA;00133;RMIC8E5004@istruzione.it;062050849;41.86004;12.64224;1;0
RMTF040002;E. FERMI;TF;RMTF040002;E. FERMI;VIA        TRIONFALE 8737;ROMA;ROMA;00135;RMTF040002@istruzione.it;0630600237;41.9403;12.42313;1;0
RMTF10901X;EINSTEIN;TF;RMIS10900B;EINSTEIN - BACHELET;VIA PASQUALE II 237;ROMA;ROMA;00168;RMIS10900B@istruzione.it;06121124405;41.90818;12.409;1;0
RMTA06000E;EMILIO SERENI;TA;RMTA06000E;EMILIO SERENI;VIA PRENESTINA KM.14,00;ROMA;ROMA;00132;RMTA06000E@istruzione.it;0622427027;41.89189;12.64935;1;0
RMMM8E701R;ENRICO MEDI;MM;RMIC8E700Q;IC VIA ACQUARONI;VIA ACQUARONI 65;ROMA;ROMA;00133;RMIC8E700Q@istruzione.it;062054196;41.8661;12.64398;1;0
RMMM8ED019;ETTORE MAJORANA;MM;RMIC8ED008;IC PIAGET-MAJORANA;PIAZZA     MINUCCIANO         33;ROMA;ROMA;00139;RMIC8ED008@istruzione.it;0688386350;41.95306;12.51479;1;0
RMPS37000A;ETTORE MAJORANA;PS;RMPS37000A;ETTORE MAJORANA;VIA        C. AVOLIO, 111;ROMA;ROMA;00128;RMPS37000A@istruzione.it;06121127420;41.79034;12.44267;1;0
RMRI03401V;EUROPA;RI;RMIS034007;GIORGIO  AMBROSOLI;VIA ROMOLO TRINCHERI, 49;ROMA;ROMA;00172;RMIS034007@istruzione.it;062155451;41.8875;12.5584;1;0
RMPS114019;EVANGELISTA TORRICELLI;PS;RMIS11400V;EVANGELISTA TORRICELLI;VIA FORTE BRASCHI, 99;ROMA;ROMA;00167;RMIS11400V@istruzione.it;06121127200;41.91261;12.41921;1;0
RMTB127018;F.DE PINEDO;TB;RMIS127001;F.DE PINEDO- M. COLONNA;VIA FRANCESCO MORANDINI 30;ROMA;ROMA;00142;RMIS127001@istruzione.it;06121127000;41.82921;12.49737;1;0
RMRC03201E;F.FERRARA;RC;RMIS03200G;"I.I.S. ""TOMMASO SALVINI""";VIA        CAPOSILE 1;ROMA;ROMA;00195;RMIS03200G@istruzione.it;06121122985;41.91946;12.46414;1;0
RMMM8BS011;FABRIANI S.M. PER SORDOMUTI;MM;RMIC8BS00X;ISTITUTO COMPRENSIVO PER SORDI;VICOLO DEL CASALE LUMBROSO, 129;ROMA;ROMA;00166;RMIC8BS00X@istruzione.it;061211127720;41.86708;12.37183;1;0
RMMM8FV01Q;FABRIZIO DE ANDRE';MM;RMIC8FV00P;I.C. VIA FABIOLA;VIA FABIOLA 15;ROMA;ROMA;00152;RMIC8FV00P@istruzione.it;0658202664;41.87622;12.44924;1;0
RMMM804018;FALCONE E BORSELLINO;MM;RMIC804007;I.C. FALCONE E BORSELLINO;VIA G. DA PROCIDA, 16;ROMA;ROMA;00162;RMIC804007@istruzione.it;0644266693;41.91348;12.52519;1;0
RMMM834014;FANELLI;MM;RMIC834003;FANELLI - F.MARINI;VIA        P. DUCATI;ROMA;ROMA;00119;RMIC834003@istruzione.it;065652066;41.76151;12.30269;1;0
RMMM8EQ01L;FEDERICO FELLINI;MM;RMIC8EQ00G;"IC ""ENNIO MORRICONE""";VIA  BELFORTE DEL CHIENTI, 24;ROMA;ROMA;00156;RMIC8EQ00G@istruzione.it;0641217716;41.94428;12.57513;1;0
RMPS090001;FEDERIGO ENRIQUES;PS;RMPS090001;FEDERIGO ENRIQUES;VIA FEDERICO PAOLINI 196;ROMA;ROMA;00122;RMPS090001@istruzione.it;06121126340;41.73752;12.29085;1;0
RMTD10301P;FERDINANDO MAGELLANO;TD;RMIS10300C;GIULIO VERNE - I.I.S.VIA DI SAPONARA 150;VIA A.DA GARESSIO, 109;ROMA;ROMA;00126;RMIS10300C@istruzione.it;06121127700;41.78654;12.35265;1;0
RMTF08401R;FERRARIS;TF;RMIS084008;FEDERICO CAFFE';VIA FONTEIANA 111;ROMA;ROMA;00152;RMIS084008@istruzione.it;06121125925;41.87903;12.45421;1;0
RMPS10000A;FRANCESCO D'ASSISI;PS;RMPS10000A;FRANCESCO D'ASSISI;VIALE      DELLA PRIMAVERA 207;ROMA;ROMA;00172;RMPS10000A@istruzione.it;06121122745;41.88204;12.56099;1;0
RMPC09000T;FRANCESCO VIVONA;PC;RMPC09000T;FRANCESCO VIVONA;VIA DELLA FISICA 14 (EUR);ROMA;ROMA;00144;RMPC09000T@istruzione.it;06121123085;41.83355;12.46541;1;0
RMMM855015;FRANCO FERRARA-SCUOLA SEC.I GR.;MM;RMIC855004;IC MARCO POLO;VIA PATERNO', 22;ROMA;ROMA;00133;RMIC855004@istruzione.it;0620760256;41.85827;12.67171;1;0
RMMM8G1013;FRANK;MM;RMIC8G1002;IC VIA CORNELIA, 73;VIA        CORNELIA, 1/3;ROMA;ROMA;00166;RMIC8G1002@istruzione.it;066241794;41.91033;12.39913;1;0
RMPSII500C;G. D'ANNUNZIO;PS;RMPSII500C;G. D'ANNUNZIO;Via O. Panvinio 11/13;ROMA;ROMA;00162;info@istitutogabrieledannunzio.it;068550148      ;41.92287;12.52086;0;1
RMPM4G5004;G. D'ANNUNZIO SCIENZE UMANE - ECONOMICO-SOCIALE;PM;RMPM4G5004;G. D'ANNUNZIO SCIENZE UMANE - ECONOMICO-SOCIALE;Via O. Panvinio 11/13;ROMA;ROMA;00162;info@istitutogabrieledannunzio.it;;41.92285;12.52087;0;1
RMPC06201P;G. DE SANCTIS LICEO CLASSICO LINGUISTICO;PC;RMIS06200B;DE SANCTIS;VIA CASSIA,  931;ROMA;ROMA;00189;RMIS06200B@istruzione.it;06121122945;41.97213;12.43265;1;0
RMPS06201T;G. DE SANCTIS LICEO SCIENTIFICO;PS;RMIS06200B;DE SANCTIS;VIA CASSIA, 931;ROMA;ROMA;00189;RMIS06200B@istruzione.it;06121122945;41.97213;12.43265;1;0
RMMM8CS01C;G. FALCONE E F. MORVILLO;MM;RMIC8CS00B;IC EMMA CASTELNUOVO;VIA DON PRIMO MAZZOLARI 323;ROMA;ROMA;00132;RMIC8CS00B@istruzione.it;0622751820;41.89947;12.67017;1;0
RMTF090003;G. GALILEI;TF;RMTF090003;G. GALILEI;VIA      CONTE VERDE,51;ROMA;ROMA;00185;RMTF090003@istruzione.it;000677071943;41.89233;12.50808;1;0
RMTF009013;G. LATTANZIO;TF;RMIS00900E;IISS ITC DI VITTORIO-ITI LATTANZIO;VIA TEANO,223;ROMA;ROMA;00177;RMIS00900E@istruzione.it;000602751744;41.88959;12.54966;1;0
RMTD113019;G. SALVEMINI;TD;RMIS113003;CROCE-ALERAMO;VIA SOMMOVIGO 40;ROMA;ROMA;00155;RMIS113003@istruzione.it;06121123185;41.91059;12.57595;1;0
RMTD00901R;G.DI VITTORIO;TD;RMIS00900E;IISS ITC DI VITTORIO-ITI LATTANZIO;VIA  AQUILONIA, 50;ROMA;ROMA;00177;RMIS00900E@istruzione.it;0060273268;41.88959;12.54966;1;0
RMTA070005;"G.GARIBALDI ANNESSO CONV.""G.GARIBALDI""";TA;RMTA070005;"G.GARIBALDI ANNESSO CONV.""G.GARIBALDI""";VIA DI VIGNA MURATA, 571/573;ROMA;ROMA;00142;RMTA070005@istruzione.it;0693578629;41.82746;12.51146;1;0
RM1MHD500Z;GAUSS;MM;RM1MHD500Z;GAUSS;Via della Bufalotta 556;ROMA;ROMA;00139;info@istitutogauss.it;06-24305331-2  ;41.95974;12.54699;0;1
RMPL035007;GAUSS;PL;RMPL035007;GAUSS;Via della Bufalotta, 556;ROMA;ROMA;00139;SEGRETERIA@ISTITUTOGAUSS.IT;0624305331     ;41.95802;12.54587;0;1
RMMM8FT014;GIANICOLO;MM;RMIC8FT003;"""GIANICOLO""";LARGO A. ORIANI, 1;ROMA;ROMA;00152;RMIC8FT003@istruzione.it;065810022;41.87867;12.46055;1;0
RMMM833018;GIANNI RODARI;MM;RMIC833007;"""GIANNI RODARI"" - VIA NIOBE";VIA        NIOBE               50/52;ROMA;ROMA;00118;RMIC833007@istruzione.it;0679896266;41.8219;12.61464;1;0
RMPM12000L;GIORDANO BRUNO;PM;RMPM12000L;GIORDANO BRUNO;VIA DELLA BUFALOTTA 594;ROMA;ROMA;00139;RMPM12000L@istruzione.it;06121122025;41.96318;12.54824;1;0
RMTF12101E;GIORGI;TF;RMIS121002;GIORGI - WOOLF;VIALE P. TOGLIATTI 1161;ROMA;ROMA;00155;RMIS121002@istruzione.it;0621800646;41.9006;12.57245;1;0
RMMM8FY017;GIORGIO MORANDI;MM;RMIC8FY006;I.C. MARIO LODI;VIA        D'AVARNA            9/11;ROMA;ROMA;00151;RMIC8FY006@istruzione.it;0665743707;41.8568;12.44368;1;0
RMPM02701G;GIOSUE' CARDUCCI;PM;RMIS027004;I.I.S. GIOSUE' CARDUCCI;VIA ASMARA, N. 28;ROMA;ROMA;00199;RMIS027004@istruzione.it;121124485;41.92743;12.51788;1;0
RMMM8GW016;GIOVANNI XXIII;MM;RMIC8GW005;IC CLAUDIO ABBADO;V.LE       MEDAGLIE D'ORO      419/G;ROMA;ROMA;00136;RMIC8GW005@istruzione.it;0635348801;41.9232;12.44563;1;0
RMPSHQ500O;GIULIA FALETTI DI BAROLO;PS;RMPSHQ500O;GIULIA FALETTI DI BAROLO;VIALE MARCONI 700;ROMA;ROMA;00146;segr.didattica@santannafalletti.it;065401257      ;41.84589;12.47583;0;1
RMPC12000C;GIULIO CESARE;PC;RMPC12000C;GIULIO CESARE;CORSO TRIESTE 48;ROMA;ROMA;00198;RMPC12000C@istruzione.it;06121124445;41.91876;12.50711;1;0
RMRC10301B;GIULIO VERNE;RC;RMIS10300C;GIULIO VERNE - I.I.S.VIA DI SAPONARA 150;VIA DI SAPONARA 150;ROMA;ROMA;00125;RMIS10300C@istruzione.it;06121125745;41.77943;12.35943;1;0
RMMM8FS018;GIUSEPPE BAGNERA;MM;RMIC8FS007;I.C. GIUSEPPE BAGNERA;VIA GIUSEPPE  BAGNERA,64;ROMA;ROMA;00146;RMIC8FS007@istruzione.it;065580690;41.86309;12.46695;1;0
RMMM8FD01X;GIUSEPPE MOSCATI;MM;RMIC8FD00V;IC VIA P. SEMERIA;VIA P. SEMERIA, 28;ROMA;ROMA;00154;RMIC8FD00V@istruzione.it;065123167;41.86593;12.49437;1;0
RMMM84001B;GIUSEPPE PARINI;MM;RMIC84000A;VIA DELLE AZZORRE;VIA DELLE AZZORRE       314;ROMA;ROMA;00121;RMIC84000A@istruzione.it;0656339756;41.74052;12.26856;1;0
RMMM8EU019;GIUSEPPE TONIOLO;MM;RMIC8EU008;I.C. VIA ANAGNI;VIA ANAGNI, 46;ROMA;ROMA;00171;RMIC8EU008@istruzione.it;0621803058;41.89004;12.55673;1;0
RMMM8BX01T;GIUSEPPE TUCCIMEI;MM;RMIC8BX00R;IC M.CALDERINI-G.TUCCIMEI;VIA C. BESCHI,10;ROMA;ROMA;00125;RMIC8BX00R@istruzione.it;0652350169;41.7846;12.36522;1;0
RMMM8G201V;GIUSEPPE VERDI;MM;RMIC8G200T;IC VIA ORMEA;VIA ORMEA, 6;ROMA;ROMA;00166;RMIC8G200T@istruzione.it;0661568456;41.91646;12.36922;1;0
RMMM8F401X;GOFFREDO PETRASSI;MM;RMIC8F400V;"I.C. ""GOFFREDO PETRASSI""";VIA        DELLA MARATONA      23;ROMA;ROMA;00194;RMIC8F400V@istruzione.it;063292909;41.94419;12.45912;1;0
RMMM8CC018;GUGLIELMO  MASSAIA;MM;RMIC8CC007;"IC ""ARTEMISIA GENTILESCHI""";VIA CARPINETO,11;ROMA;ROMA;00172;RMIC8CC007@istruzione.it;0693567977;41.87605;12.55968;1;0
RMPS46000L;GULLACE TALOTTA;PS;RMPS46000L;GULLACE TALOTTA;PIAZZA     CAVALIERI DEL LAVORO 18;ROMA;ROMA;00173;RMPS46000L@istruzione.it;0612112265;41.86021;12.57293;1;0
RMPLG55006;Highlands Institute Internazionale-Quadriennale;PL;RMPLG55006;Highlands Institute Internazionale-Quadriennale;VIA DELLA SCULTURA 15;ROMA;ROMA;00144;;06902271       ;;;0;1
RMMM8FZ013;I. C. PIAZZA FORLANINI;MM;RMIC8FZ002;I.C. PIAZZA FORLANINI;VIA DI VAL TELLINA, 50;ROMA;ROMA;00151;RMIC8FZ002@istruzione.it;0695955195;41.86732;12.44803;1;0
RMMM854019;"I.C. ""ARISTIDE LEONORI""";MM;RMIC854008;"I.C. ""ARISTIDE LEONORI""";VIA        ACHILLE FUNI 41;ROMA;ROMA;00125;RMIC854008@istruzione.it;0652311607;41.77374;12.34805;1;0
RMMM8GL01P;I.C. VIA SORISO;MM;RMIC8GL00N;I.C. VIA SORISO;VIA SORISO, 41;ROMA;ROMA;00166;RMIC8GL00N@istruzione.it;0681925147;41.90142;12.4075;1;0
RMPS09101T;"I.I.S. ""VIA DEI PAPARESCHI""";PS;RMIS09100B;"I.I.S. ""VIA DEI PAPARESCHI""";VIA DEI PAPARESCHI, 30/A;ROMA;ROMA;00146;RMIS09100B@istruzione.it;0655308913;41.87036;12.47039;1;0
RMTE091015;"I.I.S. ""VIA DEI PAPARESCHI""";TE;RMIS09100B;"I.I.S. ""VIA DEI PAPARESCHI""";VIA DEI PAPARESCHI, 30/A;ROMA;ROMA;00146;RMIS09100B@istruzione.it;0655308913;41.87036;12.47039;1;0
RMRC097019;I.I.S. CONFALONIERI DE CHIRICO;RC;RMIS09700A;CONFALONIERI-DE CHIRICO;VIA B.M. DE MATTIAS, 5 - VIA A. SEVERO;ROMA;ROMA;00183;RMIS09700A@istruzione.it;0696120065;41.87897;12.503;1;0
RMSL09701N;I.I.S. CONFALONIERI DE CHIRICO;SL;RMIS09700A;CONFALONIERI-DE CHIRICO;LARGO PANNONIA  37- VIA CERVETERI 53 - VIA SEVERO;ROMA;ROMA;00183;RMIS09700A@istruzione.it;0696120065;41.87949;12.50174;1;0
RMTF09701V;I.I.S. CONFALONIERI DE CHIRICO;TF;RMIS09700A;CONFALONIERI-DE CHIRICO;VIA BEATA MARIA DE MATTIAS, VIA A. SEVERO;ROMA;ROMA;00185;RMIS09700A@ISTRUZIONE.IT;06121122085;41.87897;12.503;1;0
RMPS09402A;I.I.S. PACINOTTI - ARCHIMEDE;PS;RMIS09400V;PACINOTTI - ARCHIMEDE;VIA MONTAIONE, 15;ROMA;ROMA;00139;RMIS09400V@istruzione.it;06121123545;41.94885;12.51489;1;0
RMTF09401B;I.I.S. PACINOTTI - ARCHIMEDE;TF;RMIS09400V;PACINOTTI - ARCHIMEDE;VIA        MONTAIONE 15;ROMA;ROMA;00139;RMIS09400V@istruzione.it;06121123545;41.96352;12.51685;1;0
RMSL08201X;"I.I.S.S. ""CARAVAGGIO""";SL;RMIS08200L;"I.I.S.S. ""CARAVAGGIO""";VIALE C.T.ODESCALCHI 75;ROMA;ROMA;00147;RMIS08200L@istruzione.it;06121126965;41.85364;12.49912;1;0
RMTF02202E;I.I.S.S. J. VON NEUMANN;TF;RMIS022001;J.VON NEUMANN;VIA POLLENZA, 115;ROMA;ROMA;00156;RMIS022001@istruzione.it;06121123265;41.94527;12.57827;1;0
RMRF11301Q;I.P.SIBILLA ALERAMO;RF;RMIS113003;CROCE-ALERAMO;VIA      CAPELLINI 11;ROMA;ROMA;00158;RMIS113003@istruzione.it;06121122925;41.92739;12.5751;1;0
RMTD43500Q;I.T.A.F.M. POLIZIANO;TD;RMTD43500Q;I.T.A.F.M. POLIZIANO;VIA DELLA TRAVICELLA 55/61;ROMA;ROMA;00179;istituto.poliziano@virgilio.it;065110121      ;41.87037;12.4979;0;1
RMTD49500B;I.T.C. ETTORE MAJORANA;TD;RMTD49500B;I.T.C. ETTORE MAJORANA;V.MONTAGANO 74;ROMA;ROMA;00010;giuseppefinamore@hotmail.it;062263143      ;41.90442;12.68317;0;1
RMTD12601B;"I.T.C.G. ""CARLO MATTEUCCI""";TD;RMIS126005;IIS CARLO MATTEUCCI;VIA        DELLE VIGNE NUOVE 262;ROMA;ROMA;00139;RMIS126005@istruzione.it;06121123705;41.95249;12.53635;1;0
RMTF03301X;"IIS ""CARLO URBANI"" - IST. TECNICO IND.LE";TF;RMIS03300B;CARLO URBANI;VIA DELL'IDROSCALO, 88;ROMA;ROMA;00121;RMIS03300B@istruzione.it;06121126360;41.73963;12.25614;1;0
RMRI033013;"IIS ""CARLO URBANI"" - SEDE DI ACILIA";RI;RMIS03300B;CARLO URBANI;VIA DI SAPONARA, 760;ROMA;ROMA;00125;RMIS03300B@istruzione.it;06121125325;41.76744;12.32592;1;0
RMRC03301A;"IIS ""CARLO URBANI"" - SEDE DI OSTIA";RC;RMIS03300B;CARLO URBANI;VIA DELL'IDROSCALO, 88;ROMA;ROMA;00121;RMIS03300B@istruzione.it;06121126360;41.73961;12.25656;1;0
RMTD008011;"IIS ""L. PIRELLI"" ECONOMICO - LINGUISTICO";TD;RMIS00800P;IS  LEOPOLDO PIRELLI;VIA ROCCA DI PAPA, 113;ROMA;ROMA;00179;RMIS00800P@istruzione.it;06121122305;41.86767;12.53392;1;0
RMTL00801B;"IIS ""LEOPOLDO PIRELLI"" C.A.T.";TL;RMIS00800P;IS  LEOPOLDO PIRELLI;VIA        ROCCA DI PAPA 113;ROMA;ROMA;00179;RMIS00800P@istruzione.it;06121122305;41.86793;12.53375;1;0
RMMM827011;ILARIA ALPI;MM;RMIC82700X;MELISSA BASSI;VIA DELL'ARCHEOLOGIA 139;ROMA;ROMA;00133;RMIC82700X@istruzione.it;062009904;41.87727;12.63007;1;0
RMTD08201V;ILARIA ALPI;TD;RMIS08200L;"I.I.S.S. ""CARAVAGGIO""";VIALE C.T.ODESCALCHI, 75;ROMA;ROMA;00147;RMIS08200L@istruzione.it;065123580;41.85371;12.49901;1;0
RMPM9P500H;INFORMEZ GROUP;PM;RMPM9P500H;INFORMEZ GROUP;CORSO VITTORIO EMANUELE II 326;ROMA;ROMA;00186;amministrazione@informezgroup.it;0692956088     ;41.89954;12.46675;0;1
RMMM8D7016;IPPOLITO NIEVO;MM;RMIC8D7005;IC VIA U. BOCCIONI;VIA        U. BOCCIONI         12;ROMA;ROMA;00197;RMIC8D7005@istruzione.it;068082153;41.92728;12.48696;1;0
RMRH010507;IPSEOA TOR CARBONE;RH;RMRH01000T;"""TOR CARBONE - ALESSANDRO NARDUCCI""";VIA TOR CARBONE, 53;ROMA;ROMA;00178;RMRH01000T@ISTRUZIONE.IT;121122600;41.83231;12.53571;1;0
RMRFB3500L;IPSS CARTESIO;RF;RMRFB3500L;IPSS CARTESIO;V. C.E. Gadda, 156;ROMA;ROMA;00143;DIDATTICA@ISTITUTOCARTESIO.COM;06-45665348    ;41.81127;12.47675;0;1
RMPM195002;IST. MAGISTRALE S. SISTO VECCHIO;PM;RMPM195002;IST. MAGISTRALE S. SISTO VECCHIO;V.DRUSO 2;ROMA;ROMA;00184;SEGRETERIA@ISTITUTOSANSISTOROMA.IT;00677205175    ;41.88074;12.49622;0;1
RMTF18500C;IST. TECNICO INFORMATICA E TELECOMUNICAZIONI;TF;RMTF18500C;IST. TECNICO INFORMATICA E TELECOMUNICAZIONI;CSO DUCA DI GENOVA 157;ROMA;ROMA;00121;ISTITUTO@ISTITUTOGIOVANNIPAOLO2.IT;065692301      ;41.73417;12.27062;0;1
RMTF023019;IST. TECNOLOGICO;TF;RMIS02300R;DONATO BRAMANTE;VIA DELLA CECCHINA 20;ROMA;ROMA;00139;RMIS02300R@istruzione.it;06121123505;41.94774;12.5415;1;0
RMTNEF500B;ISTITUTI SUPERIORI PARITARI ANIENE;TN;RMTNEF500B;ISTITUTI SUPERIORI PARITARI ANIENE;Via Tiburtina, 994;ROMA;ROMA;00156;direzione@istitutoaniene.it;06.95020221    ;;;0;1
RM1M058005;"ISTITUTO ""TERESA SPINELLI"" DELLE SUORE AGOSTINIANE SERVE DI GESÙ E MARIA";MM;RM1M058005;"ISTITUTO ""TERESA SPINELLI"" DELLE SUORE AGOSTINIANE SERVE DI GESÙ E MARIA";PIAZZA MASTAI, 16;ROMA;ROMA;00100;SCUOLA.TERESA.SPINELLI@GMAIL.COM;065812747      ;41.88727;12.47295;0;1
RMPME45007;ISTITUTO ALFRED NOBEL SRL;PM;RMPME45007;ISTITUTO ALFRED NOBEL SRL;VIA G.GALATI. 99;ROMA;ROMA;00155;ISTITUTOALFREDNOBEL@GMAIL.COM;0640802091     ;41.91224;12.57028;0;1
RMPS46500Q;ISTITUTO COR JESU ROMA - LICEO SCIENTIFICO;PS;RMPS46500Q;ISTITUTO COR JESU ROMA - LICEO SCIENTIFICO;V.G.SOMMEILLER 38;ROMA;ROMA;00185;;067726561      ;41.88893;12.5126;0;1
RM1M10900R;ISTITUTO COR JESU ROMA - SECONDARIA DI I GRADO;MM;RM1M10900R;ISTITUTO COR JESU ROMA - SECONDARIA DI I GRADO;V.G.SOMMEILLER 38;ROMA;ROMA;00185;;067726561      ;41.88893;12.5126;0;1
RMTND1500F;ISTITUTO GIOVANNI PAOLO II - ISTITUTO TECNICO PER IL TURISMO;TN;RMTND1500F;ISTITUTO GIOVANNI PAOLO II - ISTITUTO TECNICO PER IL TURISMO;CORSO DUCA DI GENOVA, 157;ROMA;ROMA;00121;;065672123      ;41.73369;12.27178;0;1
RMTB035009;ISTITUTO NOBILE - AVIATION COLLEGE;TB;RMTB035009;ISTITUTO NOBILE - AVIATION COLLEGE;VIA VINCENZO LAMARO 25;ROMA;ROMA;00173;SEGRETERIA@ISTITUTONOBILE.IT;06768893       ;41.85167;12.57305;0;1
RM1MST500V;ISTITUTO NOBILE MIDDLE SCHOOL;MM;RM1MST500V;ISTITUTO NOBILE MIDDLE SCHOOL;V. VINCENZO LAMARO 25;ROMA;ROMA;00173;segreteria@istitutonobile.it;06768893       ;41.85327;12.57312;0;1
RMRH12500C;ISTITUTO PARITARIO SAFI ELIS;RH;RMRH12500C;ISTITUTO PARITARIO SAFI ELIS;VIA SEBASTIANO SATTA 54;ROMA;ROMA;00159;safi@elis.org;0645924008     ;41.90388;12.55081;0;1
RMPC24500N;ISTITUTO SAN GIUSEPPE CASALETTO - LICEO CLASSICO - LINGUISTICO;PC;RMPC24500N;ISTITUTO SAN GIUSEPPE CASALETTO - LICEO CLASSICO - LINGUISTICO;V.CASALETTO 260;ROMA;ROMA;00151;SEGRETERIA@SCUOLASANGIUSEPPE.IT;065376663      ;41.86849;12.43852;0;1
RMPS135009;ISTITUTO SAN GIUSEPPE CASALETTO - LICEO SCIENTIFICO;PS;RMPS135009;ISTITUTO SAN GIUSEPPE CASALETTO - LICEO SCIENTIFICO;VIA DEL CASALETTO 260;ROMA;ROMA;00151;SEGRETERIA@SCUOLASANGIUSEPPE.IT;065376663      ;41.86849;12.43852;0;1
RM1M05100A;ISTITUTO SAN GIUSEPPE CASALETTO - SCUOLA SECONDARIA PRIMO GRADO;MM;RM1M05100A;ISTITUTO SAN GIUSEPPE CASALETTO - SCUOLA SECONDARIA PRIMO GRADO;V.CASALETTO 260;ROMA;ROMA;00151;SEGRETERIA@SCUOLASANGIUSEPPE.IT;065376663      ;41.86957;12.43886;0;1
RMPMTS5005;ISTITUTO SCUOLA SAN GIUSEPPE CASALETTO LICEO DELLE SCIENZE UMANE;PM;RMPMTS5005;ISTITUTO SCUOLA SAN GIUSEPPE CASALETTO LICEO DELLE SCIENZE UMANE;VIA DEL CASALETTO 260;ROMA;ROMA;00151;segreteria@scuolasangiuseppe.it;065376663      ;41.86849;12.43852;0;1
RMTF11901E;ISTITUTO TECNICO;TF;RMIS119002;DE AMICIS - CATTANEO;LUNGOTEVERE TESTACCIO 32;ROMA;ROMA;00153;RMIS119002@istruzione.it;;41.87972;12.47198;1;0
RMTD03201T;"ISTITUTO TECNICO ""ANTONIO GENOVESI""";TD;RMIS03200G;"I.I.S. ""TOMMASO SALVINI""";VIA CAPOSILE, 1;ROMA;ROMA;00195;RMIS03200G@istruzione.it;06121122985;41.93022;12.4926;1;0
RMTD77500R;ISTITUTO TECNICO COMMERCIALE AMMINISTRAZIONE FINANZA E MARKETING;TD;RMTD77500R;ISTITUTO TECNICO COMMERCIALE AMMINISTRAZIONE FINANZA E MARKETING;VIA E. NATHAN 41/43;ROMA;ROMA;00146;SEGRETERIA@ISTITUTOROMA.IT;0655285343     ;41.85188;12.45844;0;1
RMTD78500B;ISTITUTO TECNICO ECONOMICO;TD;RMTD78500B;ISTITUTO TECNICO ECONOMICO;VIA  A, BACCIARINI 35;ROMA;ROMA;00167;INFO@ISTITUTOHEGEL.COM;0639754743     ;41.90261;12.43649;0;1
RMTF08901X;ISTITUTO TECNICO GRAFICA E COMUNICAZIONE;TF;RMIS08900B;"CINE TV ""ROBERTO ROSSELLINI""";VIA LIBETTA 14;ROMA;ROMA;00146;RMIS08900B@istruzione.it;06121125840;41.85625;12.46889;1;0
RMPMDD500Q;ISTITUTO TOZZI LICEO DELLE SCIENZE UMANE;PM;RMPMDD500Q;ISTITUTO TOZZI LICEO DELLE SCIENZE UMANE;Via del Casaletto, 35;ROMA;ROMA;00151;tozzist@tin.it;;;;0;1
RMMM8CM014;ITALO CALVINO;MM;RMIC8CM003;"IC ""VIA F.GENTILE, 40""";VIA F.     GENTILE             92;ROMA;ROMA;00173;RMIC8CM003@istruzione.it;067210096;41.85488;12.58768;1;0
RMTD08401E;ITCG FEDERICO CAFFE';TD;RMIS084008;FEDERICO CAFFE';VIALE DI VILLA PAMPHILI N.86;ROMA;ROMA;00152;RMIS084008@istruzione.it;06121125925;41.87765;12.45572;1;0
RMTF110003;ITI GIOVANNI XXIII;TF;RMTF110003;ITI GIOVANNI XXIII;VIA        TOR SAPIENZA 160;ROMA;ROMA;00155;RMTF110003@istruzione.it;06121122855;41.89716;12.5907;1;0
RMTF350007;ITI M. FARADAY;TF;RMTF350007;ITI M. FARADAY;VIA        CAPO SPERONE 52;ROMA;ROMA;00122;RMTF350007@istruzione.it;06121123625;41.74197;12.28899;1;0
RMTN02000C;ITTUR  LIVIA BOTTARDI;TN;RMTN02000C;ITTUR  LIVIA BOTTARDI;VIA  FILIBERTO PETITI N. 97;ROMA;ROMA;00155;RMTN02000C@istruzione.it;06121126565;41.9081;12.60532;1;0
RMTN073012;ITTUR  MARCO POLO;TN;RMIS07300T;""" CHARLES  DARWIN """;VIA        TUSCOLANA 388;ROMA;ROMA;00181;RMIS07300T@istruzione.it;06121122165;41.87444;12.5291;1;0
RM1M031005;IUNIOR INTERNATIONAL INSTITUTE;MM;RM1M031005;IUNIOR INTERNATIONAL INSTITUTE;V.G.B.DE ROSSI 48;ROMA;ROMA;00161;IUNIOR@SCUOLECEFA.IT;0644239356     ;41.91788;12.5192;0;1
RMSL128014;"IV LICEO ARTISTICO ""A.CARAVILLANI""";SL;RMIS12800R;"POLO LICEALE ""ALIGHIERI - CARAVILLANI""";PIAZZA DEL RISORGIMENTO, 46/B;ROMA;ROMA;00192;RMIS12800R@istruzione.it;0667665570;41.87852;12.45637;1;0
RMTD51500B;Istituto Tecnico Amministrazione Finanza e Marketing;TD;RMTD51500B;Istituto Tecnico Amministrazione Finanza e Marketing;C.O DUCA DI GENOVA 155 (OSTIA L.);ROMA;ROMA;00121;ISTITUTO@ISTITUTOGIOVANNIPAOLO2.IT;065672123      ;41.73405;12.271;0;1
RMPM016015;J.J.ROUSSEAU;PM;RMIS01600N;VIA DELLE SETTE CHIESE, 259;VIA DELLE SETTE CHIESE 259;ROMA;ROMA;00147;RMIS01600N@istruzione.it;06121124065;41.85954;12.50392;1;0
RMPS18500A;KENNEDY;PS;RMPS18500A;KENNEDY;VIA GIOSUE' CARDUCCI 2;ROMA;ROMA;00186;info@kennedyscuola.it;066796652      ;41.89671;12.48584;0;1
RMMM85301D;KING;MM;RMIC85300C;MARTIN LUTHER KING;VIA        DEI GIARDINETTI     85;ROMA;ROMA;00133;RMIC85300C@istruzione.it;062022758;41.86007;12.60323;1;0
RMPC19500T;L. CLASSICO SANT'APOLLINARE;PC;RMPC19500T;L. CLASSICO SANT'APOLLINARE;VIALE VATICANO, 42/B;ROMA;ROMA;00165;SEGRETERIA@ISTITUTOAPOLLINARE.ORG;06  69871265   ;41.90205;12.44572;0;1
RMPLUU500N;L. LINGUISTICO SANT'APOLLINARE;PL;RMPLUU500N;L. LINGUISTICO SANT'APOLLINARE;VIALE VATICANO, 42/B;ROMA;ROMA;00165;segreteria@istitutoapollinare.org;06/69871265    ;41.90191;12.44551;0;1
RMPS555002;L. SCIENTIFICO SANT'APOLLINARE;PS;RMPS555002;L. SCIENTIFICO SANT'APOLLINARE;VIALE VATICANO, 42/B;ROMA;ROMA;00165;SEGRETERIA@ISTITUTOAPOLLINARE.ORG;;41.90205;12.44572;0;1
RMPC33500X;L.C. MONS. TOZZI;PC;RMPC33500X;L.C. MONS. TOZZI;V.CASALETTO 35;ROMA;ROMA;00151;LICEOTOZZI@GMAIL.COM;065346270      ;41.87772;12.44066;0;1
RMPC080007;"L.G.S ""ENNIO QUIRINO VISCONTI""";PC;RMPC080007;"L.G.S ""ENNIO QUIRINO VISCONTI""";PIAZZA DEL COLLEGIO ROMANO, 4;ROMA;ROMA;00186;RMPC080007@istruzione.it;06121124325;41.89798;12.4803;1;0
RMPL355003;L.LING. MONS. TOZZI;PL;RMPL355003;L.LING. MONS. TOZZI;V.CASALETTO 35;ROMA;ROMA;00151;tozzist@tin.it;065346270      ;41.87772;12.44066;0;1
RMPS27500L;L.S. IST. S. MARIA;PS;RMPS27500L;L.S. IST. S. MARIA;V.LE MANZONI 5;ROMA;ROMA;00185;segreteria@istitutosantamaria.com;06  70033899   ;41.88966;12.50486;0;1
RMPS285007;L.S. MONS. TOZZI;PS;RMPS285007;L.S. MONS. TOZZI;V.CASALETTO 35;ROMA;ROMA;00151;tozzist@tin.it;065346270      ;41.87772;12.44066;0;1
RMPS165005;L.S. PIRANDELLO;PS;RMPS165005;L.S. PIRANDELLO;V.BONI 1;ROMA;ROMA;00162;ISTITUTOPIRANDELLOROMA@GMAIL.COM;0644238492     ;41.91524;12.52039;0;1
RMPS97500P;L.S. S. GIUSEPPE;PS;RMPS97500P;L.S. S. GIUSEPPE;VIA RABBELLO 15;ROMA;ROMA;00178;secondaria@sangiuseppecab.it;067184277      ;41.84009;12.54825;0;1
RMPS24500R;L.S. S. GIUSEPPE DE MERODE;PS;RMPS24500R;L.S. S. GIUSEPPE DE MERODE;V.S.SEBASTIANELLO 3;ROMA;ROMA;00187;DIREZIONE@SANGIUSEPPEDEMERODE.IT;0669922505     ;41.90679;12.48207;0;1
RMPS41500P;L.S. SERAPHICUM;PS;RMPS41500P;L.S. SERAPHICUM;V.DEL SERAFICO 3;ROMA;ROMA;00142;info@seraphicum.com;065190102      ;41.82958;12.48306;0;1
RMPS8Q500R;L.S. SEZ. SCIENZE APPLICATE GIOVANNI PAOLO II;PS;RMPS8Q500R;L.S. SEZ. SCIENZE APPLICATE GIOVANNI PAOLO II;C.SO DUCA DI GENOVA 157;ROMA;ROMA;00121;stituto@istitutogiovannipaolo2.it;065672123      ;41.73383;12.27086;0;1
RMPS180007;"L.S.S. ""J. F. KENNEDY""";PS;RMPS180007;"L.S.S. ""J. F. KENNEDY""";VIA NICOLA FABRIZI, 7;ROMA;ROMA;00153;RMPS180007@istruzione.it;06121127380;41.88683;12.46557;1;0
RM1M5A5006;LA BOTTEGA DEI GIOVANI TALENTI;MM;RM1M5A5006;LA BOTTEGA DEI GIOVANI TALENTI;VIA APPIA NUOVA, 171;ROMA;ROMA;00183;info@labottegadeigiovanitalenti.eu;;;;0;1
RMMM85901C;LA GIUSTINIANA;MM;RMIC85900B;LA GIUSTINIANA;SANTOLIQUIDO, 26/28 -IANNICELLI 172;ROMA;ROMA;00189;RMIC85900B@istruzione.it;0630366595;41.98732;12.40696;1;0
RMMM86401X;LARGO CASTELSEPRIO, 11;MM;RMIC86400V;I. C. LUCIO FONTANA;LARGO CASTELSEPRIO, 11 ROMA;ROMA;ROMA;00188;RMIC86400V@istruzione.it;0633611329;41.99153;12.47911;1;0
RMRF02701R;LARGO DI VILLA PAGANINI 6;RF;RMIS027004;I.I.S. GIOSUE' CARDUCCI;LARGO DI VILLA PAGANINI, N. 6;ROMA;ROMA;00198;RMIS027004@istruzione.it;121125500;41.91614;12.50833;1;0
RMPC200004;LC ARISTOFANE;PC;RMPC200004;LC ARISTOFANE;VIA        MONTE RESEGONE 3;ROMA;ROMA;00139;RMPC200004@istruzione.it;06121125005;41.95232;12.5316;1;0
RMPC31000G;LC IMMANUEL KANT;PC;RMPC31000G;LC IMMANUEL KANT;PIAZZA ZAMBECCARI 19;ROMA;ROMA;00177;RMPC31000G@istruzione.it;06121122525;41.87622;12.54993;1;0
RMPC03201V;LC MAMELI;PC;RMIS03200G;"I.I.S. ""TOMMASO SALVINI""";VIA        P. A. MICHELI 29;ROMA;ROMA;00197;RMIS03200G@istruzione.it;06121124825;41.92307;12.48256;1;0
RMTD03901L;LEON BATTISTA ALBERTI;TD;RMIS03900A;IS LEON BATTISTA ALBERTI;VIALE CIVILTA' DEL LAVORO, 4;ROMA;ROMA;00144;RMIS03900A@istruzione.it;065923396;41.83629;12.46606;1;0
RMTL039013;LEON BATTISTA ALBERTI;TL;RMIS03900A;IS LEON BATTISTA ALBERTI;VIALE      CIVILTA' DEL LAVORO 4;ROMA;ROMA;00144;RMIS03900A@istruzione.it;0612112540;41.83629;12.46607;1;0
RMMM8BZ01D;LEONARDO DA VINCI;MM;RMIC8BZ00C;LEONARDO VINCI;VIALE      DELLA GRANDE MURAGLIA 37;ROMA;ROMA;00144;RMIC8BZ00C@istruzione.it;0652209322;41.82092;12.45608;1;0
RMMM8BM01T;LEOPARDI;MM;RMIC8BM00R;MARIA CAPOZZI;VIA        ENNIO BONIFAZI      64;ROMA;ROMA;00167;RMIC8BM00R@istruzione.it;066630905;41.90591;12.41563;1;0
RMRHRE5002;LEOPARDI;RH;RMRHRE5002;LEOPARDI;V. DEL PETTIROSSO, 14;ROMA;ROMA;00169;ist.leopardi@email.it;06265355       ;41.86774;12.59394;0;1
RMPS655007;LIC. SCIENT. OPZIONE SCIENZE APPLICATE POLIZIANO;PS;RMPS655007;LIC. SCIENT. OPZIONE SCIENZE APPLICATE POLIZIANO;V. DELLA TRAVICELLA 55/61;ROMA;ROMA;00179;;065110121      ;41.87034;12.49834;0;1
RMPC280001;"LIC.CL.ANNESSO CONV.NAZ.""V.EMANUELE II""";PC;RMPC280001;"LIC.CL.ANNESSO CONV.NAZ.""V.EMANUELE II""";PIAZZA MONTE GRAPPA 5;ROMA;ROMA;00195;RMPC280001@istruzione.it;063269981;41.91914;12.46937;1;0
RMSL5N500U;LIC.MUS.SEZ.COREUTICO GIOVANNI PAOLO II;SL;RMSL5N500U;LIC.MUS.SEZ.COREUTICO GIOVANNI PAOLO II;C.SO DUCA DI GENOVA, 157;ROMA;ROMA;00121;istituto@istitutogiovannipaolo2.it;065672123      ;41.73383;12.27086;0;1
RMPS420006;"LIC.SC.ANNESSO CONV.NAZ.""V.EMANUELE II""";PS;RMPS420006;"LIC.SC.ANNESSO CONV.NAZ.""V.EMANUELE II""";PIAZZA MONTE GRAPPA 5;ROMA;ROMA;00195;RMPS420006@istruzione.it;063269981;41.91914;12.46937;1;0
RMPS5G5003;LIC.SC.SEZ.SC.APPLICATE SAN GABRIELE;PS;RMPS5G5003;LIC.SC.SEZ.SC.APPLICATE SAN GABRIELE;VIA DELLA GIUSTINIANA, 1200;ROMA;ROMA;00189;ISTITUTOSANGABRIELE@GMAIL.COM;06302831       ;41.99963;12.38593;0;1
RMPMQB5004;LIC.SC.UMANE GIOVANNI PAOLO II;PM;RMPMQB5004;LIC.SC.UMANE GIOVANNI PAOLO II;C.SO DUCA DI GENOVA 157;ROMA;ROMA;00121;istituto@istitutogiovannipaolo2.it;065672123      ;41.73383;12.27086;0;1
RMPS49000C;"LICEO  ""FARNESINA""";PS;RMPS49000C;"LICEO  ""FARNESINA""";VIA GIOCHI ISTMICI, 64;ROMA;ROMA;00135;RMPS49000C@istruzione.it;06121127045;41.94569;12.46183;1;0
RMSL023014;LICEO ARTISTICO;SL;RMIS02300R;DONATO BRAMANTE;VIA DELLA CECCHINA 20 - VIA SARANDI' 11;ROMA;ROMA;00139;RMIS02300R@istruzione.it;06121123505;41.94816;12.52976;1;0
RMSD06000G;"LICEO ARTISTICO ""ENZO ROSSI""";SD;RMSD06000G;"LICEO ARTISTICO ""ENZO ROSSI""";VIA DEL FRANTOIO, 4;ROMA;ROMA;00159;RMSD06000G@istruzione.it;06121123145;41.911;12.56224;1;0
RMSL08901P;LICEO ARTISTICO MULTIMEDIA ROSSELLINI;SL;RMIS08900B;"CINE TV ""ROBERTO ROSSELLINI""";VIA DELLA VASCA NAVALE, 58;ROMA;ROMA;00146;RMIS08900B@istruzione.it;06121125840;41.86411;12.48039;1;0
RMSL015004;LICEO ARTISTICO S. ORSOLA;SL;RMSL015004;LICEO ARTISTICO S. ORSOLA;VIA LIVORNO 50/A;ROMA;ROMA;00162;SEGRETERIA.ROMA@ORSOLINE.IT;0644246567     ;41.91563;12.52423;0;1
RMSL07000L;"LICEO ARTISTICO STATALE ""VIA DI RIPETTA""";SL;RMSL07000L;"LICEO ARTISTICO STATALE ""VIA DI RIPETTA""";VIA   DI  RIPETTA, 218;ROMA;ROMA;00186;RMSL07000L@istruzione.it;06121123460;41.90687;12.47571;1;0
RMSD10000R;LICEO ARTISTICO STATALE G.C. ARGAN;SD;RMSD10000R;LICEO ARTISTICO STATALE G.C. ARGAN;PIAZZA DEI DECEMVIRI, 12;ROMA;ROMA;00175;RMSD10000R@istruzione.it;06121122470;41.8586;12.56802;1;0
RMPC06901D;"LICEO CLASSICO ""EDOARDO AMALDI""";PC;RMIS069006;ISTITUTO ISTRUZIONE SUPERIORE E. AMALDI;VIA DOMENICO PARASACCHI, 21;ROMA;ROMA;00133;RMIS069006@istruzione.it;0699180487;41.91185;12.69007;1;0
RMPC235003;LICEO CLASSICO CRISTO RE;PC;RMPC235003;LICEO CLASSICO CRISTO RE;VIA ACHERUSIO 71;ROMA;ROMA;00199;AMMINISTRAZIONE@FONDAZIONECRISTORE.ORG;0686207503     ;41.92705;12.51404;0;1
RMPC285004;LICEO CLASSICO EUROPEO BUSINESS AND ADMINISTRATION PARITARIO VILLA FLAMINIA;PC;RMPC285004;LICEO CLASSICO EUROPEO BUSINESS AND ADMINISTRATION PARITARIO VILLA FLAMINIA;V.LE DEL VIGNOLA 56;ROMA;ROMA;00196;SEGRETERIA@VILLAFLAMINIA.NET;06322941       ;41.92544;12.46649;0;1
RMPC05500E;LICEO CLASSICO GESU' E MARIA;PC;RMPC05500E;LICEO CLASSICO GESU' E MARIA;V.FLAMINIA 631;ROMA;ROMA;00191;SEGR.SECONDARIA@SCUOLAGESUMARIA.IT;063337212      ;41.94516;12.4725;0;1
RMPC545008;LICEO CLASSICO GIOVANNI PAOLO II;PC;RMPC545008;LICEO CLASSICO GIOVANNI PAOLO II;C.SO DUCA DI GENOVA, 159;ROMA;ROMA;00121;ISTITUTO@ISTITUTOGIOVANNIPAOLO2.IT;065672123      ;41.7343;12.27024;0;1
RMPC29500P;LICEO CLASSICO IST. S. MARIA;PC;RMPC29500P;LICEO CLASSICO IST. S. MARIA;V.LE MANZONI 5;ROMA;ROMA;00185;segreteria@istitutosantamaria.com;0670033899     ;41.88978;12.50485;0;1
RMPC255008;LICEO CLASSICO IST.S.GIUSEPPE CALASANZIO;PC;RMPC255008;LICEO CLASSICO IST.S.GIUSEPPE CALASANZIO;V.CORTINA D'AMPEZZO 256;ROMA;ROMA;00135;SEGRETERIA@CALASANZIO-ROMA.IT;006 3052856    ;41.94275;12.43886;0;1
RMPC08500A;LICEO CLASSICO MARIA AUSILIATRICE;PC;RMPC08500A;LICEO CLASSICO MARIA AUSILIATRICE;VIA DALMAZIA 12;ROMA;ROMA;00198;SEGRETERIA@MAUXROMA.EDU.IT;068440211      ;41.91597;12.50671;0;1
RMPC10500A;LICEO CLASSICO MASSIMILIANO MASSIMO;PC;RMPC10500A;LICEO CLASSICO MASSIMILIANO MASSIMO;V.M.MASSIMO 7;ROMA;ROMA;00144;SEGRETERIA@ISTITUTOMASSIMO.COM;06  543961     ;41.83009;12.45824;0;1
RMPC185007;LICEO CLASSICO PIO XI;PC;RMPC185007;LICEO CLASSICO PIO XI;V.UMBERTIDE 11;ROMA;ROMA;00181;SEGRETERIA@PIOUNDICESIMO.ORG;0678440101     ;41.87419;12.53136;0;1
RMPC455002;LICEO CLASSICO PIRANDELLO;PC;RMPC455002;LICEO CLASSICO PIRANDELLO;V.BONI 1;ROMA;ROMA;00162;ISTITUTOPIRANDELLOROMA@GMAIL.COM;0644238492     ;41.91524;12.52039;0;1
RMPC44500B;LICEO CLASSICO S. GIOVANNI BATTISTA;PC;RMPC44500B;LICEO CLASSICO S. GIOVANNI BATTISTA;V.CASALE S.PIO V  11;ROMA;ROMA;00165;SCUOLA.SGB.RM@GMAIL.COM;0666000849     ;41.82309;12.49157;0;1
RMPC26500V;LICEO CLASSICO S. GIUSEPPE DE MERODE;PC;RMPC26500V;LICEO CLASSICO S. GIUSEPPE DE MERODE;V.S.SEBASTIANELLO 3;ROMA;ROMA;00187;DIREZIONE@SANGIUSEPPEDEMERODE.IT;0669922505     ;41.90679;12.48207;0;1
RMPC525003;LICEO CLASSICO S.ORSOLA;PC;RMPC525003;LICEO CLASSICO S.ORSOLA;VIA LIVORNO 50/A;ROMA;ROMA;00162;SEGRETERIA.ROMA@ORSOLINE.IT;0644246567     ;41.91563;12.52423;0;1
RMPCAM500U;LICEO CLASSICO SAN GABRIELE;PC;RMPCAM500U;LICEO CLASSICO SAN GABRIELE;VIA DELLA GIUSTINIANA, 1200;ROMA;ROMA;00123;ISTITUTOSANGABRIELE@GMAIL.COM;06302831       ;41.9366;12.43916;0;1
RMPMS55008;LICEO DEL MADE IN ITALY- GIOVANNI PAOLO II;PM;RMPMS55008;LICEO DEL MADE IN ITALY- GIOVANNI PAOLO II;CORSO DUCA DI GENOVA, 157;ROMA;ROMA;00121;istituto@istitutogiovannipaolo2.it;065672123      ;;;0;1
RMPMB15005;LICEO DEL MADE IN ITALY- MINERVA;PM;RMPMB15005;LICEO DEL MADE IN ITALY- MINERVA;VIALE BATTISTA BARDANZELLU, 83;ROMA;ROMA;00155;;;;;0;1
RMPMI75006;LICEO DEL MADE IN ITALY- Poliziano;PM;RMPMI75006;LICEO DEL MADE IN ITALY- Poliziano;VIA DELLA TRAVICELLA, 55/61;ROMA;ROMA;00179;istituto.poliziano@virgilio.it;;;;0;1
RMPM045004;LICEO DELLE SCIENZE UMANE POLIZIANO;PM;RMPM045004;LICEO DELLE SCIENZE UMANE POLIZIANO;VIA DELLA TRAVICELLA 55/61;ROMA;ROMA;00179;istituto.poliziano@virgilio.it;065110121      ;41.87037;12.4979;0;1
RMPMBG500A;LICEO DELLE SCIENZE UMANE SCUOLA PONTIFICIA PIO IX;PM;RMPMBG500A;LICEO DELLE SCIENZE UMANE SCUOLA PONTIFICIA PIO IX;VIA DEI CAVALIERI DEL SANTO SEPOLCRO 1;ROMA;ROMA;00193;SEGRETERIA@SCUOLAPIONONO.ORG;06 68802655    ;41.90183;12.46058;0;1
RMPQV5500Z;LICEO DELLE SCIENZE UMANE opz. ECONOMICO-SOCIALE-LICEO PINDARO;PQ;RMPQV5500Z;LICEO DELLE SCIENZE UMANE opz. ECONOMICO-SOCIALE-LICEO PINDARO;VIA MARCO ENRICO BOSSI 16/18;ROMA;ROMA;00124;segreteria@liceopindaro.it;0693577190     ;;;0;1
RMPQ7Q5003;LICEO DELLE SCIENZE UMANE opz. ECONOMICO-SOCIALE-M.E. TOZZI;PQ;RMPQ7Q5003;LICEO DELLE SCIENZE UMANE opz. ECONOMICO-SOCIALE-M.E. TOZZI;VIA DEL CASALETTO 35;ROMA;ROMA;00151;liceotozzi@gmail.com;065346270      ;;;0;1
RMPL1M500I;LICEO ECONOMICO SOCIALE QUADRIENNALE;PL;RMPL1M500I;LICEO ECONOMICO SOCIALE QUADRIENNALE;VIA DRUSO 2;ROMA;ROMA;00184;SEGRETERIA@ISTITUTOSANSISTOROMA.IT;0677205175     ;41.88191;12.49737;0;1
RMPC320006;LICEO GINNASIO EUGENIO MONTALE;PC;RMPC320006;LICEO GINNASIO EUGENIO MONTALE;VIA BRAVETTA, 545;ROMA;ROMA;00164;RMPC320006@istruzione.it;06121123660;41.8722;12.42353;1;0
RMPC150008;LICEO GINNASIO STATALE ORAZIO;PC;RMPC150008;LICEO GINNASIO STATALE ORAZIO;VIA        SAVINIO 40;ROMA;ROMA;00141;RMPC150008@istruzione.it;06121125256;41.94237;12.54556;1;0
RMPC3Q500Z;LICEO INTERNAZIONALE SCIENTIFICO - CLASSICO - LINGUISTICO - G. FALCONIERI;PC;RMPC3Q500Z;LICEO INTERNAZIONALE SCIENTIFICO - CLASSICO - LINGUISTICO - G. FALCONIERI;V. GUIDUBALDO DEL MONTE 17;ROMA;ROMA;00197;amministrazione@istitutofalconieri.com;068070384      ;;;0;1
RMPS12401X;LICEO LINGUISTICO;PS;RMIS12400D;IIS CRISTOFORO COLOMBO;VIA PANISPERNA 255;ROMA;ROMA;00184;RMIS12400D@istruzione.it;;;;1;0
RMPLB3500E;LICEO LINGUISTICO - MINERVA;PL;RMPLB3500E;LICEO LINGUISTICO - MINERVA;VIALE BATTISTA BARDANZELLU 83;ROMA;ROMA;00155;;064075776      ;41.91587;12.56886;0;1
RMPLP0500V;LICEO LINGUISTICO -ISTITUTO PARITARIO GESù-MARIA;PL;RMPLP0500V;LICEO LINGUISTICO -ISTITUTO PARITARIO GESù-MARIA;VIA FLAMINIA 631;ROMA;ROMA;00191;segr.secondaria@scuolagesumaria.it;063337212      ;;;0;1
RMPL00500B;LICEO LINGUISTICO F. HEGEL;PL;RMPL00500B;LICEO LINGUISTICO F. HEGEL;VIA AURELIO BACCIARINI;ROMA;ROMA;00167;INFO@ISTITUTOHEGEL.COM;0639754743     ;41.90261;12.43649;0;1
RMPL26500R;LICEO LINGUISTICO GIOVANNI PAOLO II;PL;RMPL26500R;LICEO LINGUISTICO GIOVANNI PAOLO II;C.SO DUCA DI GENOVA, 155;ROMA;ROMA;00121;ISTITUTO@ISTITUTOGIOVANNIPAOLO2.IT;065692301      ;41.73405;12.271;0;1
RMPL085008;LICEO LINGUISTICO KENNEDY;PL;RMPL085008;LICEO LINGUISTICO KENNEDY;VIA GIOSUE' CARDUCCI 2;ROMA;ROMA;00186;info@kennedyscuola.it;066796652      ;41.89747;12.48171;0;1
RMPLIL5008;LICEO LINGUISTICO MARIA AUSILIATRICE;PL;RMPLIL5008;LICEO LINGUISTICO MARIA AUSILIATRICE;VIA DALMAZIA 12;ROMA;ROMA;00198;SEGRETERIA@MAUXROMA.EDU.IT;068440211      ;;;0;1
RMPLOA500A;LICEO LINGUISTICO POLIZIANO;PL;RMPLOA500A;LICEO LINGUISTICO POLIZIANO;VIA DELLA TRAVICELLA 55/61;ROMA;ROMA;00179;istituto.poliziano@virgilio.it;065110121      ;41.87034;12.49834;0;1
RMPLA6500S;LICEO LINGUISTICO RENZO LEVI;PL;RMPLA6500S;LICEO LINGUISTICO RENZO LEVI;VIA PORTICO D'OTTAVIA 73;ROMA;ROMA;00186;liceo.levi@romaebraica.it;;;;0;1
RMPL43500P;LICEO LINGUISTICO S. GIULIANA FALCONIERI;PL;RMPL43500P;LICEO LINGUISTICO S. GIULIANA FALCONIERI;V.GUIDUBALDO DAL MONTE 17;ROMA;ROMA;00197;AMMINISTRAZIONE@ISTITUTOFALCONIERI.COM;068070384      ;41.92746;12.47988;0;1
RMPL39500D;LICEO LINGUISTICO S. GIUSEPPE;PL;RMPL39500D;LICEO LINGUISTICO S. GIUSEPPE;V.RABBELLO 15;ROMA;ROMA;00178;secondaria@sangiuseppecab.it;067184277      ;41.84009;12.54825;0;1
RMPL07500N;LICEO LINGUISTICO SACRO CUORE;PL;RMPL07500N;LICEO LINGUISTICO SACRO CUORE;P.ZA TRINITA' DEI MONTI 3;ROMA;ROMA;00187;SEGRETERIA@SACROCUORETDM.IT;066792245      ;41.90654;12.48387;0;1
RMPL0L500V;LICEO LINGUISTICO SERAPHICUM;PL;RMPL0L500V;LICEO LINGUISTICO SERAPHICUM;VIA DEL SERAFICO 3;ROMA;ROMA;00142;info@seraphicum.com;065190102      ;41.82959;12.48305;0;1
RMPL50500Q;LICEO LINGUISTICO VISCONTI;PL;RMPL50500Q;LICEO LINGUISTICO VISCONTI;VIA N. SAURO 1;ROMA;ROMA;00195;segreteria@istitutovisconti.it;06  39741489   ;41.9134;12.45285;0;1
RMSL3E5005;LICEO MUSICALE SEZ.MUSICALE SERAPHICUM;SL;RMSL3E5005;LICEO MUSICALE SEZ.MUSICALE SERAPHICUM;VIA DEL SERAFICO 3;ROMA;ROMA;00142;info@seraphicum.com;065190102      ;41.82959;12.48305;0;1
RMPSLS5006;LICEO QUADRIENNALE SPERIMENTALE;PS;RMPSLS5006;LICEO QUADRIENNALE SPERIMENTALE;V. NAZARIO SAURO 1;ROMA;ROMA;00195;segreteria@istitutovisconti.it;0639745071     ;41.91345;12.45276;0;1
RMPS032012;"LICEO SCIENTIFICO ""AZZARITA";PS;RMIS03200G;"I.I.S. ""TOMMASO SALVINI""";VIA TOMMASO SALVINI 20-24;ROMA;ROMA;00197;RMIS03200G@istruzione.it;06121124805;41.93037;12.49237;1;0
RMPS12601G;"LICEO SCIENTIFICO ""CARLO MATTEUCCI""";PS;RMIS126005;IIS CARLO MATTEUCCI;VIA DELLE VIGNE NUOVE, 262;ROMA;ROMA;00139;RMIS126005@istruzione.it;06121123705;41.95293;12.53636;1;0
RMPS06901L;"LICEO SCIENTIFICO ""EDOARDO AMALDI""";PS;RMIS069006;ISTITUTO ISTRUZIONE SUPERIORE E. AMALDI;VIA DOMENICO PARASACCHI,21;ROMA;ROMA;00133;RMIS069006@istruzione.it;0699180487;41.8681;12.63395;1;0
RMPS59500C;LICEO SCIENTIFICO - MINERVA;PS;RMPS59500C;LICEO SCIENTIFICO - MINERVA;VIALE BATTISTA BARDANZELLU 83;ROMA;ROMA;00155;;064075776      ;41.91176;12.57182;0;1
RMPS44500E;LICEO SCIENTIFICO ASISIUM;PS;RMPS44500E;LICEO SCIENTIFICO ASISIUM;V.GROTTAROSSA 301;ROMA;ROMA;00189;segreteria@asisium.it;0633247961     ;41.97437;12.44997;0;1
RMPS575007;LICEO SCIENTIFICO CARTESIO;PS;RMPS575007;LICEO SCIENTIFICO CARTESIO;VIA C. E. GADDA 156;ROMA;ROMA;00143;DIDATTICA@ISTITUTOCARTESIO.COM;0645665348     ;41.81127;12.47675;0;1
RMPS505001;LICEO SCIENTIFICO CRISTO RE;PS;RMPS505001;LICEO SCIENTIFICO CRISTO RE;VIA ACHERUSIO 71;ROMA;ROMA;00199;AMMINISTRAZIONE@FONDAZIONECRISTORE.ORG;0686207503     ;41.92703;12.51336;0;1
RMPS56500L;LICEO SCIENTIFICO F. HEGEL;PS;RMPS56500L;LICEO SCIENTIFICO F. HEGEL;VIA AURELIO BACCIARINI 35;ROMA;ROMA;00167;INFO@ISTITUTOHEGEL.COM;0639754743     ;41.90261;12.43649;0;1
RMPS695009;LICEO SCIENTIFICO GESU' MARIA;PS;RMPS695009;LICEO SCIENTIFICO GESU' MARIA;V.FLAMINIA 631;ROMA;ROMA;00191;SEGR.SECONDARIA@SCUOLAGESUMARIA.IT;06  3337212    ;41.94509;12.47254;0;1
RMPSPL500P;LICEO SCIENTIFICO IND. SPORTIVO;PS;RMPSPL500P;LICEO SCIENTIFICO IND. SPORTIVO;V. DEL CASALETTO 35;ROMA;ROMA;00152;tozzist@tin.it;065346270      ;41.87776;12.44123;0;1
RMPSQP500D;LICEO SCIENTIFICO IND. SPORTIVO;PS;RMPSQP500D;LICEO SCIENTIFICO IND. SPORTIVO;V. NAZARIO SAURO 1;ROMA;ROMA;00195;segreteria@istitutovisconti.it;0639741489     ;41.91345;12.45276;0;1
RMPSBI5001;LICEO SCIENTIFICO IND. SPORTIVO GAUSS;PS;RMPSBI5001;LICEO SCIENTIFICO IND. SPORTIVO GAUSS;V. DELLA BUFALOTTA, 556;ROMA;ROMA;00139;info@istitutogauss.it;0624305331     ;41.95974;12.54699;0;1
RMPS4A500Z;LICEO SCIENTIFICO IND. SPORTIVO SAN PAOLO;PS;RMPS4A500Z;LICEO SCIENTIFICO IND. SPORTIVO SAN PAOLO;V.LE SAN PAOLO, 12;ROMA;ROMA;00146;SEGRETERIA.SANPAOLO@MURIALDOALBANO.IT;0639743879     ;41.85843;12.47321;0;1
RMPSPG500N;LICEO SCIENTIFICO IND. SPORTIVO SERAPHICUM;PS;RMPSPG500N;LICEO SCIENTIFICO IND. SPORTIVO SERAPHICUM;V. DEL SERAFICO 3;ROMA;ROMA;00142;info@seraphicum.it;065190102      ;41.82959;12.48305;0;1
RMPS53500R;LICEO SCIENTIFICO INTERNAZIONALE;PS;RMPS53500R;LICEO SCIENTIFICO INTERNAZIONALE;VIA DELLA SCULTURA 15;ROMA;ROMA;00144;;06902271       ;41.8318;12.47913;0;1
RMPS265002;LICEO SCIENTIFICO INTERNAZIONALE PARITARIO VILLA FLAMINIA;PS;RMPS265002;LICEO SCIENTIFICO INTERNAZIONALE PARITARIO VILLA FLAMINIA;V.LE DEL VIGNOLA 56;ROMA;ROMA;00196;SEGRETERIA@VILLAFLAMINIA.NET;06322941       ;41.92544;12.46649;0;1
RMPS19000T;LICEO SCIENTIFICO KEPLERO;PS;RMPS19000T;LICEO SCIENTIFICO KEPLERO;VIA SILVESTRO GHERARDI, N.87/89;ROMA;ROMA;00146;RMPS19000T@istruzione.it;06121123925;41.86297;12.47303;1;0
RMPS08500D;LICEO SCIENTIFICO M. MASSIMO;PS;RMPS08500D;LICEO SCIENTIFICO M. MASSIMO;V.M.MASSIMO 7;ROMA;ROMA;00144;SEGRETERIA@ISTITUTOMASSIMO.COM;06  543961     ;41.83009;12.45824;0;1
RMPSAS5006;LICEO SCIENTIFICO MARIA AUSILIATRICE;PS;RMPSAS5006;LICEO SCIENTIFICO MARIA AUSILIATRICE;VIA DALMAZIA 12;ROMA;ROMA;00198;SEGRETERIA@MAUXROMA.EDU.IT;068440211      ;;;0;1
RMPSMF500G;LICEO SCIENTIFICO OPZIONE SCIENZE APPL. PIO IX;PS;RMPSMF500G;LICEO SCIENTIFICO OPZIONE SCIENZE APPL. PIO IX;V. DI SANTA PRISCA 8;ROMA;ROMA;00153;direzione@istitutopioix.it;065743797      ;41.88273;12.48349;0;1
RMPS00500L;LICEO SCIENTIFICO POLIZIANO;PS;RMPS00500L;LICEO SCIENTIFICO POLIZIANO;VIA DELLA TRAVICELLA 55/61;ROMA;ROMA;00179;istituto.poliziano@virgilio.it;065110121      ;41.87037;12.4979;0;1
RMPS25500B;LICEO SCIENTIFICO S. LEONE MAGNO;PS;RMPS25500B;LICEO SCIENTIFICO S. LEONE MAGNO;P.ZA S.COSTANZA 2;ROMA;ROMA;00198;SEGRETERIAROMA@MARISTIMEDITERRANEA.COM;068537041      ;41.92148;12.516;0;1
RMPQ06500D;LICEO SCIENTIFICO SACRO CUORE;PQ;RMPQ06500D;LICEO SCIENTIFICO SACRO CUORE;V.TENUTA S.AGATA 1;ROMA;ROMA;00135;ISTITUTOSACROCUORE@PICCOLEANCELLE.COM;063054767      ;41.93737;12.42874;0;1
RMPSNS500T;LICEO SCIENTIFICO SAN GABRIELE;PS;RMPSNS500T;LICEO SCIENTIFICO SAN GABRIELE;VIA DELLA GIUSTINIANA, 1200;ROMA;ROMA;00189;ISTITUTOSANGABRIELE@GMAIL.COM;06302831       ;41.99963;12.38593;0;1
RMPS36500V;LICEO SCIENTIFICO SCUOLA PONTIFICIA PIO IX;PS;RMPS36500V;LICEO SCIENTIFICO SCUOLA PONTIFICIA PIO IX;VIA DEI CAVALIERI DEL S. SEPOLCRO 1;ROMA;ROMA;00193;SEGRETERIA@SCUOLAPIONONO.ORG;0668801325     ;41.90191;12.46062;0;1
RMPSI6500C;LICEO SCIENTIFICO SPORTIVO;PS;RMPSI6500C;LICEO SCIENTIFICO SPORTIVO;C.SO DUCA DI GENOVA 157/159;ROMA;ROMA;00121;istituto@istitutogiovannipaolo2.it;065672123      ;41.73383;12.27086;0;1
RMPM9C500Z;LICEO SCIENTIFICO SPORTIVO INTERNAZIONALE-VILLA FLAMINIA;PM;RMPM9C500Z;LICEO SCIENTIFICO SPORTIVO INTERNAZIONALE-VILLA FLAMINIA;VIALE DEL VIGNOLA 56;ROMA;ROMA;00196;istituto@villaflaminia.net;06322941       ;;;0;1
RMPSRQ500V;LICEO SCIENTIFICO SPORTIVO IST. SANTA MARIA;PS;RMPSRQ500V;LICEO SCIENTIFICO SPORTIVO IST. SANTA MARIA;VLE MANZONI 5;ROMA;ROMA;00185;segreteria@istitutosantamaria.com;0670033777     ;41.88966;12.50486;0;1
RMPSIB5004;LICEO SCIENTIFICO SPORTIVO ISTITUTO MASSIMILIANO MASSIMO;PS;RMPSIB5004;LICEO SCIENTIFICO SPORTIVO ISTITUTO MASSIMILIANO MASSIMO;Via Massimiliano Massimo n. 7 ;ROMA;ROMA;00144;SEGRETERIA@ISTITUTOMASSIMO.COM;06543961       ;;;0;1
RMPSRP5006;LICEO SCIENTIFICO SPORTIVO MARIO GROTTANELLI;PS;RMPSRP5006;LICEO SCIENTIFICO SPORTIVO MARIO GROTTANELLI;Via Tiburtina 994;ROMA;ROMA;00156;direzione@istitutoaniene.it;;;;0;1
RMPS455005;LICEO SCIENTIFICO-GIOVANNI PAOLO II;PS;RMPS455005;LICEO SCIENTIFICO-GIOVANNI PAOLO II;C.O DUCA DI GENOVA 157;ROMA;ROMA;00121;ISTITUTO@ISTITUTOGIOVANNIPAOLO2.IT;065692301      ;41.73417;12.27062;0;1
RMPMIO5006;LICEO SCIENZE UMANE;PM;RMPMIO5006;LICEO SCIENZE UMANE;V. A. BACCIARINI, 35;ROMA;ROMA;00167;INFO@ISTITUTOHEGEL.COM;0639754743     ;41.90237;12.43631;0;1
RMPM01301N;"LICEO SCIENZE UMANE ""LEONARDO DA VINCI""";PM;RMIS013006;ISTITUTO DI ISTRUZIONE LEONARDO DA VINCI;VIA CAVOUR, 258;ROMA;ROMA;00184;RMIS013006@istruzione.it;06121128185;41.89386;12.49061;1;0
RMPMSC500I;LICEO SCIENZE UMANE ECONOMICO SOCIALE - MINERVA;PM;RMPMSC500I;LICEO SCIENZE UMANE ECONOMICO SOCIALE - MINERVA;VIALE BATTISTA BARDANZELLU 83;ROMA;ROMA;00155;;064075776      ;41.91587;12.56886;0;1
RMPM08500E;LICEO SCIENZE UMANE MARIA IMMACOLATA;PM;RMPM08500E;LICEO SCIENZE UMANE MARIA IMMACOLATA;V.TOR DE'SCHIAVI 150;ROMA;ROMA;00172;ulf22@katamail.com;06  2417200    ;41.88166;12.56357;0;1
RMPMPL5008;LICEO SCIENZE UMANE OP. ECONOMICO SOC. IST. ROMA;PM;RMPMPL5008;LICEO SCIENZE UMANE OP. ECONOMICO SOC. IST. ROMA;V. ERNESTO NATHAN 41/43;ROMA;ROMA;00146;direzione@istitutoroma.it;0655285343     ;41.85206;12.45828;0;1
RMPM17500R;LICEO SCIENZE UMANE SAN PAOLO;PM;RMPM17500R;LICEO SCIENZE UMANE SAN PAOLO;V.CASILINA 1606 (TORRE GAIA);ROMA;ROMA;00133;istpaolo@tiscali.it;06  2053751    ;41.86361;12.63741;0;1
RMPM02601Q;"LICEO STATALE ""MACHIAVELLI"" (EX ORIANI)";PM;RMIS026008;LICEO STATALE NICCOLO' MACHIAVELLI;PIAZZA     INDIPENDENZA 7;ROMA;ROMA;00185;RMIS026008@istruzione.it;064452370;41.90433;12.50323;1;0
RMPS65000Q;LICEO STATALE DEMOCRITO;PS;RMPS65000Q;LICEO STATALE DEMOCRITO;VIA        PRASSILLA, N.79;ROMA;ROMA;00124;RMPS65000Q@istruzione.it;06121123816;41.7524;12.35716;1;0
RMPS26000V;LS PASTEUR;PS;RMPS26000V;LS PASTEUR;VIA        BARELLAI 130;ROMA;ROMA;00135;RMPS26000V@istruzione.it;063386628;41.94293;12.41091;1;0
RMPS48000T;LS TALETE;PS;RMPS48000T;LS TALETE;VIA        CAMOZZI, 2;ROMA;ROMA;00195;RMPS48000T@istruzione.it;06121124305;41.91259;12.45943;1;0
RMPC02601G;LUCILIO;PC;RMIS026008;LICEO STATALE NICCOLO' MACHIAVELLI;VIA        DEI SABELLI 86;ROMA;ROMA;00185;RMIS026008@istruzione.it;064455308;41.89689;12.51519;1;0
RMPC06301E;LUCIO ANNEO SENECA;PC;RMIS063007;LUCIO ANNEO SENECA;VIA       ALBERGOTTI 35;ROMA;ROMA;00167;RMIS063007@istruzione.it;06121124585;41.90536;12.4269;1;0
RMPS06301N;LUCIO ANNEO SENECA SCIENTIFICO;PS;RMIS063007;LUCIO ANNEO SENECA;VIA ALBERGOTTI, 35;ROMA;ROMA;00167;RMIS063007@istruzione.it;0612112458;41.90532;12.42687;1;0
RMMM8EM019;LUCIO LOMBARDO RADICE;MM;RMIC8EM008;IC PIERSANTI MATTARELLA;V. FACCHINETTI 42  V. CASALBERTONE 91;ROMA;ROMA;00159;RMIC8EM008@istruzione.it;0643598618;41.8971;12.5314;1;0
RMTD38000R;LUCIO LOMBARDO RADICE;TD;RMTD38000R;LUCIO LOMBARDO RADICE;PIAZZA ETTORE VIOLA, 6;ROMA;ROMA;00173;RMTD38000R@istruzione.it;06121122835;41.84289;12.58831;1;0
RMPC420003;LUCREZIO CARO;PC;RMPC420003;LUCREZIO CARO;VIA VENEZUELA 30;ROMA;ROMA;00196;RMPC420003@istruzione.it;06121125355;41.93241;12.47722;1;0
RMMM8FJ01C;LUPO ALBERTO;MM;RMIC8FJ00B;IC TERESA SARTI;LARGO BIGNOTTI, 10;ROMA;ROMA;00127;RMIC8FJ00B@istruzione.it;0652834216;41.80146;12.42521;1;0
RMSLBH500V;"Liceo Artistico ""UGO FOSCOLO""";SL;RMSLBH500V;"Liceo Artistico ""UGO FOSCOLO""";V. ISOLE DEL CAPO VERDE, 192;ROMA;ROMA;00121;LICEOARTISTICOUGOFOSCOLO@GMAIL.COM;065614805      ;41.73849;12.27399;0;1
RMPS0V500L;Liceo Scientifico Sportivo ROMA;PS;RMPS0V500L;Liceo Scientifico Sportivo ROMA;VIA ERNESTO NATHAN;ROMA;ROMA;00146;;;41.85206;12.45828;0;1
RMPSGN5004;Liceo Scientifico opz. scienze applicate - Renzo Levi;PS;RMPSGN5004;Liceo Scientifico opz. scienze applicate - Renzo Levi;Via Portico d'Ottavia, 73;ROMA;ROMA;00186;;;;;0;1
RMMM85701R;M. PERIELLO;MM;RMIC85700Q;ENZO BIAGI;VIA ORREA, 23;ROMA;ROMA;00123;RMIC85700Q@istruzione.it;063037022;42.0835;12.34798;1;0
RMTH127022;M.COLONNA;TH;RMIS127001;F.DE PINEDO- M. COLONNA;VIA        SALVATORE PINCHERLE 201;ROMA;ROMA;00146;RMIS127001@istruzione.it;06121123740;41.85367;12.46514;1;0
RMRS092019;MAGAROTTO;RS;RMIS092007;VICOLO DEL CASAL LUMBROSO;VICOLO     DEL CASAL LUMBROSO 129;ROMA;ROMA;00166;RMIS092007@istruzione.it;06121127720;41.86708;12.37183;1;0
RMMM83501X;MAGNANI;MM;RMIC83500V;"""FONTANILE ANAGNINO""";VIA        FONTANILE ANAGNINO  123;ROMA;ROMA;00118;RMIC83500V@istruzione.it;067900151;41.81396;12.60328;1;0
RMPL22500A;MAGNUM;PL;RMPL22500A;MAGNUM;VIALE EUROPA 140;ROMA;ROMA;00144;;06  5913242    ;41.8318;12.46581;0;1
RMPS485001;MAGNUM;PS;RMPS485001;MAGNUM;VIALE EUROPA 140;ROMA;ROMA;00144;;06  5913240    ;41.83202;12.46514;0;1
RMTD70500E;MAGNUM;TD;RMTD70500E;MAGNUM;V.BORNEO 30;ROMA;ROMA;00144;;00065913242    ;41.82009;12.46211;0;1
RMPS108012;MALPIGHI;PS;RMIS10800G;VIA SILVESTRI, 301;VIA        SILVESTRI 301;ROMA;ROMA;00164;RMIS10800G@istruzione.it;06121127660;41.87663;12.42721;1;0
RMPC14000N;MANARA;PC;RMPC14000N;MANARA;VIA BASILIO BRICCI 4;ROMA;ROMA;00152;RMPC14000N@istruzione.it;06121127825;41.8844;12.45753;1;0
RMMM8FL014;MAR DEI CARAIBI - STELLA POLARE;MM;RMIC8FL003;IC VIA MAR DEI CARAIBI;VIA MAR DEI CARAIBI 32;ROMA;ROMA;00122;RMIC8FL003@istruzione.it;065681895;41.73033;12.30218;1;0
RMPM08000B;MARGHERITA DI SAVOIA;PM;RMPM08000B;MARGHERITA DI SAVOIA;VIA CERVETERI, 55/57;ROMA;ROMA;00183;RMPM08000B@istruzione.it;06121122065;41.88123;12.51099;1;0
RM1MZQ500O;MARIA CONSOLATRICE;MM;RM1MZQ500O;MARIA CONSOLATRICE;V.N. MARSELLI 1;ROMA;ROMA;00159;mssconcolatrice@tiscali.it;064396352      ;41.89722;12.53549;0;1
RM1M07100G;MARYMOUNT;MM;RM1M07100G;MARYMOUNT;V.NOMENTANA 355;ROMA;ROMA;00162;;068622571      ;41.92293;12.51935;0;1
RMPSVA5006;MARYMOUNT LICEO  SCIENTIFICO;PS;RMPSVA5006;MARYMOUNT LICEO  SCIENTIFICO;V. Livorno, 91;ROMA;ROMA;00162;;068622571      ;41.91695;12.52623;0;1
RMPC1A5001;MARYMOUNT LICEO CLASSICO;PC;RMPC1A5001;MARYMOUNT LICEO CLASSICO;V. LIVORNO, 91;ROMA;ROMA;00162;SEGRETERIADIDATTICA@MARYMOUNT.IT;068622571      ;41.91695;12.52623;0;1
RMMM80701Q;MASINA, BARTALI, UNGARETTI;MM;RMIC80700P;URUGUAY;VIA GIUSEPPE DE SANTIS, 33;ROMA;ROMA;00139;RMIC80700P@istruzione.it;068181662;41.96652;12.54764;1;0
RMMM8BV016;MASSIMO GIZZIO;MM;RMIC8BV005;PARCO DI VEIO;VIA MORRO REATINO, N.45;ROMA;ROMA;00189;RMIC8BV005@istruzione.it;0633253495;41.97416;12.44234;1;0
RM1M08900R;MATER DIVINI AMORIS;MM;RM1M08900R;MATER DIVINI AMORIS;V.C.CANULEIO 150;ROMA;ROMA;00174;direzione@scuolamda.it;0671582286     ;41.85056;12.56398;0;1
RMMM82301N;MEDIA G.B.VALENTE;MM;RMIC82300L;I.C. GIOVAN BATTISTA VALENTE;VIALE G.B. VALENTE, 98;ROMA;ROMA;00177;RMIC82300L@istruzione.it;021800794;41.89695;12.56653;1;0
RMMM8E101T;MICHELE FIORAVANTI;MM;RMIC8E100R;VIA ARETUSA;VIA DELIA,46;ROMA;ROMA;00155;RMIC8E100R@istruzione.it;062291998;41.91557;12.61055;1;0
RMRC03601T;MONETA;RC;RMIS03600V;I.I.S.  J. PIAGET-V. NOBILIORE - DIAZ;VIA        DIANA 35;ROMA;ROMA;00175;RMIS03600V@istruzione.it;0612112268;41.86732;12.54792;1;0
RMMM82201T;MONTALE EUGENIO;MM;RMIC82200R;VIA CASAL BIANCO;VIA        CASAL BIANCO        140;ROMA;ROMA;00131;RMIC82200R@istruzione.it;064190100;41.94126;12.62792;1;0
RMMM83001R;MONTEZEMOLO;MM;RMIC83000Q;GIUSEPPE MONTEZEMOLO;VIA        A. DI BONAIUTO, 16;ROMA;ROMA;00142;RMIC83000Q@istruzione.it;065030846;41.82794;12.49072;1;0
RMPS24000N;MORGAGNI;PS;RMPS24000N;MORGAGNI;VIA FONTEIANA 125;ROMA;ROMA;00152;RMPS24000N@istruzione.it;06121123785;41.87749;12.45423;1;0
RMPS17000L;NEWTON;PS;RMPS17000L;NEWTON;V.LE       MANZONI 47;ROMA;ROMA;00185;RMPS17000L@istruzione.it;06121124785;41.89101;12.50826;1;0
RMMM842013;NINO ROTA;MM;RMIC842002;NINO ROTA;VIA F. S. BENUCCI, 32;ROMA;ROMA;00149;RMIC842002@istruzione.it;0655284893;41.8509;12.45132;1;0
RMMM812017;NOBEL;MM;RMIC812006;IC FIDENAE;VIA RIO NELL'ELBA 145;ROMA;ROMA;00138;RMIC812006@istruzione.it;068816175;41.97139;12.51475;1;0
RMPS44000B;NOMENTANO;PS;RMPS44000B;NOMENTANO;VIA DELLA BUFALOTTA, 229;ROMA;ROMA;00139;RMPS44000B@istruzione.it;06121122012;41.95199;12.54296;1;0
RMTDSN500S;NUMIDIO QUADRATO;TD;RMTDSN500S;NUMIDIO QUADRATO;V. DI CENTOCELLE 572;ROMA;ROMA;00175;amministrazione@numidioquadrato.it;0676966681     ;41.86499;12.55546;0;1
RMMM8BP01D;OVIDIO;MM;RMIC8BP00C;OVIDIO;VIA        G. BITOSSI          5;ROMA;ROMA;00136;RMIC8BP00C@istruzione.it;0635496855;41.9264;12.43994;1;0
RMPS49500G;PALLOTTI;PS;RMPS49500G;PALLOTTI;P.ZA REGINA PACIS 13;ROMA;ROMA;00122;COMUNICAZIONE@ISTITUTOPALLOTTI.IT;06  5623247    ;41.7311;12.28002;0;1
RMMM8CX01G;PAOLA SARRO;MM;RMIC8CX00E;"""I.C. DOMENICO BERNARDINI""";VIA CARLO EMILIO GADDA, 134;ROMA;ROMA;00143;RMIC8CX00E@istruzione.it;065003853;41.81172;12.47296;1;0
RMTD640001;PAOLO TOSCANELLI;TD;RMTD640001;PAOLO TOSCANELLI;VIA DELLE RANDE 22;ROMA;ROMA;00122;RMTD640001@istruzione.it;06121127590;41.72422;12.2953;1;0
RMPM123015;PASCAL;PM;RMIS12300N;BIAGIO PASCAL;VIA BREMBIO;ROMA;ROMA;00188;RMIS12300N@istruzione.it;;41.9957;12.48844;1;0
RMPS12000G;PEANO (ROMA);PS;RMPS12000G;PEANO (ROMA);VIA        F. MORANDINI 38;ROMA;ROMA;00142;RMPS12000G@istruzione.it;0697859763;41.82961;12.49852;1;0
RMRH02000C;PELLEGRINO ARTUSI;RH;RMRH02000C;PELLEGRINO ARTUSI;VIA PIZZO DI CALABRIA,5;ROMA;ROMA;00178;RMRH02000C@istruzione.it;0671280548;41.86674;12.55171;1;0
RMRA061522;PERC. II LIV. AGRARIO DEL PINO;RA;RMRA06101G;DOMIZIA LUCILLA;VIA CESARE LOMBROSO 118;ROMA;ROMA;00168;RMIS06100G@istruzione.it;0635506798;41.93414;12.41481;1;0
RMRH061504;PERC. II LIV. IPSEOA;RH;RMRH06101Q;VIA CESARE LOMBROSO;VIA CESARE LOMBROSO 118;ROMA;ROMA;00168;RMIS06100G@istruzione.it;0635506798;41.93414;12.41481;1;0
RMRC11150P;PERC. II LIV. STENDHAL;RC;RMRC11101A;STENDHAL;VIA CASSIA 727/734;ROMA;ROMA;00189;RMIS11100B@istruzione.it;06121128465;41.96473;12.44404;1;0
RMTF02250T;PERC. II LIV. VON NEUMANN;TF;RMTF02202E;I.I.S.S. J. VON NEUMANN;VIA POLLENZA 115;ROMA;ROMA;00156;RMIS022001@istruzione.it;06121123265;41.94669;12.57749;1;0
RMTD12651R;"PERCORSI DI II LIVELLO ""MATTEUCCI""";TD;RMTD12601B;"I.T.C.G. ""CARLO MATTEUCCI""";VIA DELLE VIGNE NUOVE 262;ROMA;ROMA;00139;RMIS126005@istruzione.it;06121123705;41.95249;12.53635;1;0
RMSL070502;PERCORSO DI II LIV. VIA DI RIPETTA;SL;RMSL07000L;"LICEO ARTISTICO STATALE ""VIA DI RIPETTA""";VIA DI RIPETTA 218;ROMA;ROMA;00186;RMSL07000L@istruzione.it;06121123460;41.90697;12.47569;1;0
RMTF11050C;PERCORSO DI II LIVELLO - GIOVANNI XXIII;TF;RMTF110003;ITI GIOVANNI XXIII;VIA TOR SAPIENZA, 160;ROMA;ROMA;00155;RMTF110003@istruzione.it;;41.8972;12.59085;1;0
RMTD111513;"PERCORSO II LIV ""CALAMANDREI""";TD;RMTD11101N;PIERO CALAMANDREI;VIA EMERY 97;ROMA;ROMA;00188;RMIS11100B@istruzione.it;063328003;41.9799;12.49405;1;0
RMTF109519;"PERCORSO II LIV ""EINSTEIN""";TF;RMTF10901X;EINSTEIN;VIA PASQUALE II, 237;ROMA;ROMA;00168;RMIS10900B@istruzione.it;066147920;41.90818;12.409;1;0
RMTD08451X;"PERCORSO II LIV ""FEDERICO CAFFE'""";TD;RMTD08401E;ITCG FEDERICO CAFFE';VIA DI VILLA PAMPHILI,86;ROMA;ROMA;00152;RMIS084008@istruzione.it;06121125925;41.88102;12.45645;1;0
RMTD082518;"PERCORSO II LIV ""ILARIA ALPI""";TD;RMTD08201V;ILARIA ALPI;VIALE C.T. ODESCALCHI, 75;ROMA;ROMA;00147;RMIS08200L@istruzione.it;065123580;41.85371;12.49901;1;0
RMTN07351B;"PERCORSO II LIV ""MARCO POLO""";TN;RMTN073012;ITTUR  MARCO POLO;VIA TUSCOLANA, 388;ROMA;ROMA;00181;RMIS07300T@istruzione.it;06121122165;41.87431;12.529;1;0
RMTD64050A;"PERCORSO II LIV ""PAOLO TOSCANELLI""";TD;RMTD640001;PAOLO TOSCANELLI;VIA DELLE RANDE 22;ROMA;ROMA;00122;RMTD640001@istruzione.it;065684903;41.73739;12.29154;1;0
RMRV08951E;"PERCORSO II LIV ""ROBERTO ROSSELLINI""";RV;RMRV089015;CINETV ROSSELLINI SERV. CULT. E SPETT.;VIA DELLA VASCA NAVALE, 58;ROMA;ROMA;00146;RMIS08900B@istruzione.it;065582741;41.85777;12.46949;1;0
RMRF113515;"PERCORSO II LIV ""SIBILLA ALERAMO""";RF;RMRF11301Q;I.P.SIBILLA ALERAMO;VIA CANNIZZARO, 16;ROMA;ROMA;00156;RMIS113003@istruzione.it;06121122965;41.92743;12.57515;1;0
RMRC09751P;"PERCORSO II LIV ""T.CONFALONIERI""";RC;RMRC097019;I.I.S. CONFALONIERI DE CHIRICO;VIA B.M. DE MATTIAS, 5;ROMA;ROMA;00183;RMIS09700A@istruzione.it;0696120065;41.87897;12.503;1;0
RMTD109513;"PERCORSO II LIV ""VITTORIO BACHELET""";TD;RMTD10901N;VITTORIO BACHELET;VIA DI NAZARETH;ROMA;ROMA;00166;RMIS10900B@istruzione.it;00066247152;41.90266;12.40251;1;0
RMRF027516;"PERCORSO II LIV. ""L.GO VILLA PAGANINI""";RF;RMRF02701R;LARGO DI VILLA PAGANINI 6;VIA ASMARA, N. 28;ROMA;ROMA;00199;RMIS027004@istruzione.it;0686214454;41.92743;12.51788;1;0
RMTL03951C;"PERCORSO II LIV. ""LEON BATTISTA ALBERTI""";TL;RMTL039013;LEON BATTISTA ALBERTI;VIALE CIVILTA' DEL LAVORO 4;ROMA;ROMA;00144;RMIS03900A@istruzione.it;065923396;41.83629;12.46607;1;0
RMTD032517;"PERCORSO II LIV. ""PANTALEONI""";TD;RMTD03201T;"ISTITUTO TECNICO ""ANTONIO GENOVESI""";VIA CAPOSILE, 1;ROMA;ROMA;00196;RMIS03200G@istruzione.it;0063611326;41.91126;12.47386;1;0
RMRI02350R;"PERCORSO II LIV. ""SISTO V""";RI;RMRI02301C;SISTO V;VIA DELLA CECCHINA, 20;ROMA;ROMA;00139;RMIS02300R@istruzione.it;06121123505;41.94763;12.54209;1;0
RMTL03251N;"PERCORSO II LIV. ""VALADIER""";TL;RMTL032018;VALADIER;VIA CAPOSILE,1;ROMA;ROMA;00196;RMIS03200G@istruzione.it;063611326;41.91946;12.46414;1;0
RMTF020506;"PERCORSO II LIVELLO ""ARMELLINI""";TF;RMTF02000R;ARMELLINI;VIA        PLACIDO RICCARDI 13;ROMA;ROMA;00146;RMTF02000R@istruzione.it;065566208;41.85602;12.47637;1;0
RMTF04050B;"PERCORSO II LIVELLO ""E. FERMI""";TF;RMTF040002;E. FERMI;VIA        TRIONFALE 8737;ROMA;ROMA;00135;RMTF040002@istruzione.it;0630601475;41.94005;12.4235;1;0
RMTF35050L;"PERCORSO II LIVELLO ""FARADAY""";TF;RMTF350007;ITI M. FARADAY;VIA CAPO SPERONE, 52;ROMA;ROMA;00122;RMTF350007@istruzione.it;06121123625;41.74061;12.28778;1;0
RMTF09050C;"PERCORSO II LIVELLO ""G. GALILEI""";TF;RMTF090003;G. GALILEI;VIA  CONTE VERDE,51;ROMA;ROMA;00185;RMTF090003@istruzione.it;00064467095;41.89233;12.50808;1;0
RMTD01351T;"PERCORSO II LIVELLO ""L. DA VINCI""";TD;RMTD01301C;"TECNICO COMMERCIALE ""LEONARDO DA VINCI""";VIA CAVOUR, 258;ROMA;ROMA;00184;RMIS013006@istruzione.it;06121128185;41.89406;12.49094;1;0
RMTN02050T;"PERCORSO II LIVELLO ""LIVIA BOTTARDI""";TN;RMTN02000C;ITTUR  LIVIA BOTTARDI;VIA PETITI, 97;ROMA;ROMA;00155;RMTN02000C@istruzione.it;0622709273;41.90789;12.6039;1;0
RMTD03451V;PERCORSO II LIVELLO -BOTTICELLI;TD;RMTD03401D;BOTTICELLI;VIALE DELLA PRIMAVERA, 207;ROMA;ROMA;00172;RMIS034007@istruzione.it;;41.88196;12.56113;1;0
RMTL034519;PERCORSO II LIVELLO BOAGA;TL;RMTL03401X;BOAGA;VIALE  DELLA  PRIMAVERA,  207;ROMA;ROMA;00172;RMIS034007@istruzione.it;062415139;41.88204;12.56099;1;0
RMTD08151C;PERCORSO II LIVELLO DA VERRAZZANO;TD;RMTD081013;DA VERRAZANO;VIA CONTARDO FERRINI N. 83 - TEL. 06/121122505;ROMA;ROMA;00173;RMIS08100R@istruzione.it;06121122505;41.8575;12.57152;1;0
RMRI119513;PERCORSO II LIVELLO DE AMICIS CATTANEO;RI;RMRI11901N;DE AMICIS CATTANEO;VIA L. GALVANI;ROMA;ROMA;00153;RMIS119002@istruzione.it;121126645;41.87803;12.47752;1;0
RMSD060501;PERCORSO II LIVELLO ENZO ROSSI;SD;RMSD06000G;"LICEO ARTISTICO ""ENZO ROSSI""";VIA DEL FRANTOIO,4;ROMA;ROMA;00159;RMSD06000G@istruzione.it;06121123145;41.9139;12.56104;1;0
RMRI034518;PERCORSO II LIVELLO EUROPA;RI;RMRI03401V;EUROPA;VIA ROMOLO TRINCHERI, 49;ROMA;ROMA;00172;RMIS034007@istruzione.it;062155451;41.88683;12.55977;1;0
RMTF08151P;PERCORSO II LIVELLO HERTZ;TF;RMTF081019;VALLAURI - HERTZ;VIA WALTER PROCACCINI, 70;ROMA;ROMA;00175;RMIS08100R@istruzione.it;067213158;41.84918;12.58352;1;0
RMTD102518;PERCORSO II LIVELLO SANDRO PERTINI;TD;RMTD10201V;PERTINI FALCONE;VIA LENTINI S.N.C.;ROMA;ROMA;00136;RMIS10200L@istruzione.it;;41.85979;12.66637;1;0
RMPS102013;PERTINI FALCONE;PS;RMIS10200L;PERTINI FALCONE;VIA LENTINI, 78;ROMA;ROMA;00133;RMIS10200L@istruzione.it;0697859616;41.85824;12.66354;1;0
RMRC10201G;PERTINI FALCONE;RC;RMIS10200L;PERTINI FALCONE;VIA  RUGANTINO,108;ROMA;ROMA;00169;RMIS10200L@istruzione.it;0697859918;41.86494;12.57886;1;0
RMTD10201V;PERTINI FALCONE;TD;RMIS10200L;PERTINI FALCONE;VIA LENTINI 78;ROMA;ROMA;00133;RMIS10200L@istruzione.it;0612112622;41.85824;12.66354;1;0
RM1M02700D;PETRANOVA INTERNATIONAL  INSTITUTE;MM;RM1M02700D;PETRANOVA INTERNATIONAL  INSTITUTE;VIA PAVIA 23;ROMA;ROMA;00161;PETRANOVA@SCUOLECEFA.IT;0644239356     ;41.91754;12.51948;0;1
RMMM83601Q;PETROSELLI;MM;RMIC83600P;"I.C.""MARCO ULPIO TRAIANO""";VIA  DI DRAGONE, 443;ROMA;ROMA;00126;RMIC83600P@istruzione.it;065219617;41.78732;12.32862;1;0
RMRF03650X;PIAGET;RF;RMRF03601G;PIAGET - DIAZ;VIA NOBILIORE, 79/A;ROMA;ROMA;00175;RMIS03600V@istruzione.it;;;;1;0
RMRF03601G;PIAGET - DIAZ;RF;RMIS03600V;I.I.S.  J. PIAGET-V. NOBILIORE - DIAZ;VIALE M.F. NOBILIORE, 79/A;ROMA;ROMA;00175;RMIS03600V@istruzione.it;0612112258;41.86048;12.56553;1;0
RMMM8EG01R;PIAZZA FILATTIERA, 84;MM;RMIC8EG00Q;IC P.ZZA FILATTIERA;PIAZZA     FILATTIERA          84;ROMA;ROMA;00139;RMIC8EG00Q@istruzione.it;068102978;41.95807;12.51762;1;0
RMMM8EF011;PIAZZA MONTE BALDO;MM;RMIC8EF00X;IC PIAZZA CAPRI;PIAZZA MONTE BALDO 2;ROMA;ROMA;00141;RMIC8EF00X@istruzione.it;0697605724;41.93709;12.53418;1;0
RMMM8CR017;PIAZZA MUGGIA;MM;RMIC8CR006;IC GIUSEPPE IMPASTATO;PIAZZA MUGGIA 3;ROMA;ROMA;00132;RMIC8CR006@istruzione.it;0622180417;41.9047;12.65674;1;0
RMMM8G801T;PIERO ANGELA;MM;RMIC8G800R;"""PIERO ANGELA""";VIA RATTO DELLE SABINE, 3;ROMA;ROMA;00131;RMIC8G800R@istruzione.it;0641404596;41.94623;12.60161;1;0
RMTD11101N;PIERO CALAMANDREI;TD;RMIS11100B;VIA C. EMERY, 97;VIA C. EMERY, 97;ROMA;ROMA;00188;RMIS11100B@istruzione.it;06121124425;41.98076;12.49394;1;0
RMPSE55000;PIO XI LICEO SCIENTIFICO;PS;RMPSE55000;PIO XI LICEO SCIENTIFICO;VIA UMBERTIDE 11;ROMA;ROMA;00181;SEGRETERIA@PIOUNDICESIMO.ORG;0678440101     ;41.87419;12.53136;0;1
RMPSVP500H;PIO XII;PS;RMPSVP500H;PIO XII;V. GALLA PLACIDIA, 63;ROMA;ROMA;00159;info@istitutoscolasticopioxii.it;064381465      ;41.90461;12.54294;0;1
RMTD545007;PIO XII;TD;RMTD545007;PIO XII;V.GALLA PLACIDIA 63;ROMA;ROMA;00159;INFO@ISTITUTOSCOLASTICOPIOXII.IT;064381465      ;41.90592;12.54303;0;1
RMTL395001;PIO XII;TL;RMTL395001;PIO XII;V.GALLA PLACIDIA 63;ROMA;ROMA;00159;info@istitutoscolasticopioxii.it;064381465      ;41.90592;12.54303;0;1
RMPS2V500E;PIRANDELLO - SCIENZE UMANE;PS;RMPS2V500E;PIRANDELLO - SCIENZE UMANE;Via Giacomo Boni, 1;ROMA;ROMA;00162;istitutopirandelloroma@gmail.com;;;;0;1
RMPS073018;PITAGORA;PS;RMIS07300T;""" CHARLES  DARWIN """;VIA        TUSCOLANA 388;ROMA;ROMA;00181;RMIS07300T@istruzione.it;06121122165;41.87437;12.52898;1;0
RMPC21000P;PLAUTO;PC;RMPC21000P;PLAUTO;VIA        A. RENZINI 70;ROMA;ROMA;00128;RMPC21000P@istruzione.it;06121127400;41.78141;12.44571;1;0
RMPS27000D;PLINIO SENIORE;PS;RMPS27000D;PLINIO SENIORE;VIA   MONTEBELLO 122;ROMA;ROMA;00185;RMPS27000D@istruzione.it;06121123905;41.90746;12.50275;1;0
RMPS520003;PRIMO LEVI;PS;RMPS520003;PRIMO LEVI;VIA        F.MORANDINI 64;ROMA;ROMA;00142;RMPS520003@istruzione.it;06121127020;41.83047;12.49801;1;0
RMRC118015;PROFESSIONALE - LUIGI EINAUDI;RC;RMIS118006;L.EINAUDI;VIA S.MARIA ALLE FORNACI 1;ROMA;ROMA;00165;RMIS118006@istruzione.it;06121128585;41.89785;12.45611;1;0
RMRC01351E;"PROFESSIONALE COMM. ""L. DA VINCI"" SERALE";RC;RMRC013015;"PROFESSIONALE COMMERCIO ""L. DA VINCI""";VIA CAVOUR, 258;ROMA;ROMA;00184;RMIS013006@istruzione.it;06121128185;41.89406;12.49094;1;0
RMRC013015;"PROFESSIONALE COMMERCIO ""L. DA VINCI""";RC;RMIS013006;ISTITUTO DI ISTRUZIONE LEONARDO DA VINCI;VIA CAVOUR, 258;ROMA;ROMA;00184;RMIS013006@istruzione.it;06121128185;41.89406;12.49094;1;0
RMMM8F2018;QUARTARARO;MM;RMIC8F2007;"IC ""SANDRO ONOFRI""";VIA  GREVE N. 99;ROMA;ROMA;00146;RMIC8F2007@istruzione.it;0655269363;41.84121;12.45695;1;0
RMMM821012;R. FUCINI;MM;RMIC821001;VIA R. FUCINI, 265;VIA        C. ALVARO           25;ROMA;ROMA;00137;RMIC821001@istruzione.it;06824386;41.94605;12.55253;1;0
RMMM83701G;RAFFAELLO;MM;RMIC83700E;"""RAFFAELLO""";VIA A. STOPPATO  7;ROMA;ROMA;00173;RMIC83700E@istruzione.it;067234949;41.84408;12.59705;1;0
RMPS280004;RIGHI;PS;RMPS280004;RIGHI;VIA CAMPANIA, 63;ROMA;ROMA;00187;RMPS280004@istruzione.it;06121126420;41.91063;12.49564;1;0
RMTD114015;ROSA LUXEMBURG;TD;RMIS11400V;EVANGELISTA TORRICELLI;VIA CESARE LOMBROSO,120;ROMA;ROMA;00168;RMIS11400V@istruzione.it;06121123400;41.93551;12.41746;1;0
RMMM8EW011;ROSA PARKS;MM;RMIC8EW00X;I.C. SIMONETTA SALACONE;VIA U. GUATTARI 45;ROMA;ROMA;00172;RMIC8EW00X@istruzione.it;;41.88149;12.55914;1;0
RMPSIZ500B;S. Giovanni Battista Liceo scient. indi. sportivo;PS;RMPSIZ500B;S. Giovanni Battista Liceo scient. indi. sportivo;V. del Casale di S. Pio V 11/13;ROMA;ROMA;00165;;0666000849     ;41.89159;12.43318;0;1
RM1M07600P;S. MEDIA SANT'APOLLINARE;MM;RM1M07600P;S. MEDIA SANT'APOLLINARE;VIALE VATICANO, 42/B;ROMA;ROMA;00165;SEGRETERIA@ISTITUTOAPOLLINARE.ORG;0669871265     ;41.90205;12.44572;0;1
RMPS235006;S.GIUSEPPE CALASANZIO;PS;RMPS235006;S.GIUSEPPE CALASANZIO;V.CORTINA D'AMPEZZO 256;ROMA;ROMA;00135;SEGRETERIA@CALASANZIO-ROMA.IT;06  3052586    ;41.94275;12.43886;0;1
RMMM05300D;"S.M.S. ANNESSA C.N.""V.EM.LE II""";MM;RMMM05300D;"S.M.S. ANNESSA C.N.""V.EM.LE II""";PIAZZA     MONTE GRAPPA        5;ROMA;ROMA;00195;RMMM05300D@istruzione.it;063269981;41.91914;12.46937;1;0
RMMM8D601A;S.M.S. GIUSEPPE MAZZINI;MM;RMIC8D6009;I.C. VIA DELLE CARINE;VIA        DELLE CARINE        2;ROMA;ROMA;00184;RMIC8D6009@istruzione.it;064743873;41.89256;12.49103;1;0
RMMM8EB01N;S.S. I GRADO SINOPOLI;MM;RMIC8EB00L;I.C. SINOPOLI-FERRINI;VIA PIETRO  MASCAGNI, 172;ROMA;ROMA;00199;RMIC8EB00L@istruzione.it;068600694;41.93667;12.51921;1;0
RMPM55500G;SACRO CUORE;PM;RMPM55500G;SACRO CUORE;v. della Tenuta di S. Agata, 1;ROMA;ROMA;00135;ISTITUTOSACROCUORE@PICCOLEANCELLE.COM;063054767      ;41.93737;12.42874;0;1
RMMM8E0012;SALVO D'ACQUISTO;MM;RMIC8E0001;PIAZZA DE CUPIS;VIA COLLATINA, 286;ROMA;ROMA;00155;RMIC8E0001@istruzione.it;062280093;41.90418;12.59173;1;0
RMMM841017;SAN FRANCESCO;MM;RMIC841006;I.C.GIOVANNI PAOLO II;VIA        N. MASCARDI        11;ROMA;ROMA;00126;RMIC841006@istruzione.it;0652352717;41.78306;12.35228;1;0
RMPLLD5008;SAN GIUSEPPE CALASANZIO;PL;RMPLLD5008;SAN GIUSEPPE CALASANZIO;V.LE CORTINA D'AMPEZZO, 256;ROMA;ROMA;00135;segreteria@calasanzio-roma.it;06-3052586     ;41.94294;12.43838;0;1
RMPLNG500S;SAN SISTO VECCHIO;PL;RMPLNG500S;SAN SISTO VECCHIO;VIA DRUSO 2;ROMA;ROMA;00184;;0677205175     ;41.88191;12.49737;0;1
RMMM813013;SANDRO PERTINI;MM;RMIC813002;"""MARIA MONTESSORI""";VIALE      ADRIATICO           140;ROMA;ROMA;00141;RMIC813002@istruzione.it;068181271;41.94198;12.53662;1;0
RMMM863014;SAXA RUBRA;MM;RMIC863003;IC VIA BACCANO;VIA BACCANO 38;ROMA;ROMA;00188;RMIC863003@istruzione.it;0633611605;41.99653;12.49279;1;0
RMMM8FR013;SC. SEC. I GRADO I.C. VIA CILEA;MM;RMIC8FR002;FRANCESCO CILEA;VIA CILEA, 269;ROMA;ROMA;00124;RMIC8FR002@istruzione.it;0650913962;41.74921;12.37474;1;0
RMMM8FQ017;SC. SEC.1 GR. I.C. TULLIA ZEVI;MM;RMIC8FQ006;IC TULLIA ZEVI;LARGO THEODOR HERZL 51;ROMA;ROMA;00124;RMIC8FQ006@istruzione.it;065098250;41.75536;12.36057;1;0
RM1M11200L;SCHOLA PUERORUM;MM;RM1M11200L;SCHOLA PUERORUM;V.MONTE DELLA FARINA 64;ROMA;ROMA;00186;;066868553      ;41.89596;12.47489;0;1
RMMM839017;SCHWEITZER;MM;RMIC839006;IC   VIA G. MESSINA;VIA GIUSEPPE MESSINA 31;ROMA;ROMA;00173;RMIC839006@istruzione.it;067210164;41.86018;12.57537;1;0
RM1M09800G;SCUOLA MEDIA ANNIBALE MARIA DI FRANCIA;MM;RM1M09800G;SCUOLA MEDIA ANNIBALE MARIA DI FRANCIA;CIRC.NE APPIA 146;ROMA;ROMA;00179;SCUOLAPARDIFRANCIA@TISCALI.IT;06  7824147    ;41.88271;12.51274;0;1
RM1M11800G;SCUOLA MEDIA ASISIUM;MM;RM1M11800G;SCUOLA MEDIA ASISIUM;V.GROTTAROSSA 301;ROMA;ROMA;00189;segreteria@asisium.it;0633247961     ;41.97437;12.44997;0;1
RM1M08300T;SCUOLA MEDIA CABRINI;MM;RM1M08300T;SCUOLA MEDIA CABRINI;V.ANAGNI 1;ROMA;ROMA;00171;sfscabrini_roma@yahoo.it;06  2596324    ;41.89001;12.55568;0;1
RM1M029005;SCUOLA MEDIA CARDINAL BARBARIGO;MM;RM1M029005;SCUOLA MEDIA CARDINAL BARBARIGO;V.TREVIGNANO ROMANO 12;ROMA;ROMA;00135;;0630810764     ;41.9649;12.40616;0;1
RM1M04700P;SCUOLA MEDIA CATERINA DI S. ROSA;MM;RM1M04700P;SCUOLA MEDIA CATERINA DI S. ROSA;V.DELLE SETTE CHIESE 243;ROMA;ROMA;00147;;065110343      ;41.85961;12.50152;0;1
RM1M07800A;SCUOLA MEDIA CENTURIONE BRACELLI VIRGINIA;MM;RM1M07800A;SCUOLA MEDIA CENTURIONE BRACELLI VIRGINIA;V.MATTIA BATTISTINI 256;ROMA;ROMA;00167;SEGRETERIA@SCUOLABRACELLI.IT;066278759      ;41.91751;12.41841;0;1
RM1M149007;SCUOLA MEDIA CRISTO RE;MM;RM1M149007;SCUOLA MEDIA CRISTO RE;VIA ACHERUSIO 71;ROMA;ROMA;00199;gianni.garrera@istituto-cristore.it;0686207503     ;41.92705;12.51404;0;1
RM1M03900Q;SCUOLA MEDIA DIVINA PROVVIDENZA;MM;RM1M03900Q;SCUOLA MEDIA DIVINA PROVVIDENZA;V.M.BARTOLI 255;ROMA;ROMA;00143;SEGRETERIA@SCUOLADIVINAPROVVIDENZA.IT;065012451      ;41.81938;12.49455;0;1
RM1M02100E;SCUOLA MEDIA FAA' DI BRUNO;MM;RM1M02100E;SCUOLA MEDIA FAA' DI BRUNO;P.ZZA REGINA PACIS, 13;ROMA;ROMA;00122;vpallotti@tiscali.it;065623247      ;41.73146;12.2812;0;1
RM1M04600V;SCUOLA MEDIA FALLETTI DI BAROLO;MM;RM1M04600V;SCUOLA MEDIA FALLETTI DI BAROLO;V.LE MARCONI 700;ROMA;ROMA;00146;SEGR.DIDATTICA@SANTANNAFALLETTI.IT;065401257      ;41.84648;12.47564;0;1
RM1M110001;SCUOLA MEDIA FIGLIE DI N.S. AL MONTE CALVARIO;MM;RM1M110001;SCUOLA MEDIA FIGLIE DI N.S. AL MONTE CALVARIO;V.S.QUINTINO 4;ROMA;ROMA;00185;ismocalv@libero.it;0670494521     ;41.89011;12.50814;0;1
RM1M08400N;SCUOLA MEDIA FILIPPO SMALDONE;MM;RM1M08400N;SCUOLA MEDIA FILIPPO SMALDONE;V.TOR DE'SCHIAVI 404;ROMA;ROMA;00171;SEGRETERIA@SCUOLAFILIPPOSMALDONEROMA.IT;062594079      ;41.894;12.55958;0;1
RM1M11900B;SCUOLA MEDIA GESU' E MARIA;MM;RM1M11900B;SCUOLA MEDIA GESU' E MARIA;V.FLAMINIA 631;ROMA;ROMA;00191;SEGR.SECONDARIA@SCUOLAGESUMARIA.IT;063337212      ;41.94509;12.47254;0;1
RM1M101006;SCUOLA MEDIA GIANELLI;MM;RM1M101006;SCUOLA MEDIA GIANELLI;V.MIRANDOLA 15;ROMA;ROMA;00182;PRESIDENZA.GIANELLI@GMAIL.COM;067013989      ;41.88228;12.52432;0;1
RM1M04200G;SCUOLA MEDIA HIGHLANDS INSTITUTE ;MM;RM1M04200G;SCUOLA MEDIA HIGHLANDS INSTITUTE ;V.LE DELLA SCULTURA 15;ROMA;ROMA;00144;;06902271       ;41.83118;12.47869;0;1
RM1M108001;SCUOLA MEDIA IST. S. MARIA;MM;RM1M108001;SCUOLA MEDIA IST. S. MARIA;V.LE MANZONI 5;ROMA;ROMA;00185;segreteria@istitutosantamaria.com;06  70033899   ;41.88978;12.50485;0;1
RM1M024002;SCUOLA MEDIA IST. S. PAOLO;MM;RM1M024002;SCUOLA MEDIA IST. S. PAOLO;V.CASILINA 1606 (TORRE-GAIA);ROMA;ROMA;00133;ISTPAOLO@TISCALINET.IT;06  2053751    ;41.86361;12.63741;0;1
RM1M02600N;SCUOLA MEDIA IST.S. GIUSEPPE CALASANZIO;MM;RM1M02600N;SCUOLA MEDIA IST.S. GIUSEPPE CALASANZIO;V.CORTINA D'AMPEZZO 256;ROMA;ROMA;00135;SEGRETERIA@CALASANZIO-ROMA.IT;06  3052856    ;41.94275;12.43886;0;1
RM1M03400L;SCUOLA MEDIA IST.SUORE ORSOLINE DI SOMASCA;MM;RM1M03400L;SCUOLA MEDIA IST.SUORE ORSOLINE DI SOMASCA;V.GRAN PARADISO 31;ROMA;ROMA;00139;SECONDARIA@SCUOLACITTADINIROMA.IT;068181270      ;41.94821;12.528;0;1
RM1M06300L;SCUOLA MEDIA MADONNA DELLA NEVE;MM;RM1M06300L;SCUOLA MEDIA MADONNA DELLA NEVE;V.TOR SAPIENZA 36;ROMA;ROMA;00155;SCUOLAMNEVE@GMAIL.COM;062280168      ;41.90256;12.59011;0;1
RM1M08500D;SCUOLA MEDIA MARIA IMMACOLATA;MM;RM1M08500D;SCUOLA MEDIA MARIA IMMACOLATA;V.TOR DE'SCHIAVI 150;ROMA;ROMA;00172;ulf22@katamail.com;062417200      ;41.88167;12.56357;0;1
RM1M04000X;SCUOLA MEDIA MASSIMILIANO MASSIMO;MM;RM1M04000X;SCUOLA MEDIA MASSIMILIANO MASSIMO;V.M.MASSIMO 7;ROMA;ROMA;00144;SEGRETERIA@ISTITUTOMASSIMO.COM;06  543961     ;41.83009;12.45824;0;1
RM1M04900A;SCUOLA MEDIA MASTAI;MM;RM1M04900A;SCUOLA MEDIA MASTAI;V.DELL'IMBRECCIATO 181;ROMA;ROMA;00149;segreteria@collelasalle.it;0620976431     ;41.84693;12.44749;0;1
RM1M05000E;SCUOLA MEDIA MATER CARMELI;MM;RM1M05000E;SCUOLA MEDIA MATER CARMELI;V.A.BENNICELLI 69/71;ROMA;ROMA;00151;;065370456      ;41.87524;12.44264;0;1
RM1M082002;SCUOLA MEDIA NOSTRA SIGNORA DEL SUFFRAGIO;MM;RM1M082002;SCUOLA MEDIA NOSTRA SIGNORA DEL SUFFRAGIO;V.DEI COLOMBI 47;ROMA;ROMA;00169;SCUOLE.ROMA@FAADIBRUNO.IT;06260333       ;41.86922;12.5929;0;1
RM1M036008;SCUOLA MEDIA PADRE ANGELICO LIPANI;MM;RM1M036008;SCUOLA MEDIA PADRE ANGELICO LIPANI;V.NOMENTANA 954;ROMA;ROMA;00141;P.A.LIPANI@LIBERO.IT;0682000172     ;41.94449;12.56099;0;1
RM1M14800B;SCUOLA MEDIA PIO IX;MM;RM1M14800B;SCUOLA MEDIA PIO IX;VIA DI SANTA PRISCA 8;ROMA;ROMA;00153;SEGRETERIA@ISTITUTOPIOIX.IT;065743797      ;41.88337;12.48333;0;1
RM1M09900B;SCUOLA MEDIA PIO XI;MM;RM1M09900B;SCUOLA MEDIA PIO XI;V.UMBERTIDE 11;ROMA;ROMA;00181;SEGRETERIA@PIOUNDICESIMO.ORG;0678440101     ;41.87418;12.53132;0;1
RM1M087005;SCUOLA MEDIA PIO XII;MM;RM1M087005;SCUOLA MEDIA PIO XII;V.CASILINA 767;ROMA;ROMA;00172;SEGRETERIAPIOXII@MARISTIMEDITERRANEA.COM;062419305      ;41.87601;12.5561;0;1
RM1M129002;SCUOLA MEDIA ROSSELLO;MM;RM1M129002;SCUOLA MEDIA ROSSELLO;V.FLAMINIA 353;ROMA;ROMA;00196;;063240344      ;41.92898;12.46868;0;1
RM1M04100Q;SCUOLA MEDIA S. CHIARA;MM;RM1M04100Q;SCUOLA MEDIA S. CHIARA;VIA C. TROIANI, 90;ROMA;ROMA;00144;legalerappr@gmail.com;06  52200288   ;41.81221;12.44991;0;1
RM1M143008;SCUOLA MEDIA S. GABRIELE;MM;RM1M143008;SCUOLA MEDIA S. GABRIELE;VIA DELLA GIUSTINIANA, 1200;ROMA;ROMA;00189;;06302831       ;41.99967;12.38624;0;1
RM1M074003;SCUOLA MEDIA S. GIOVANNI BATTISTA;MM;RM1M074003;SCUOLA MEDIA S. GIOVANNI BATTISTA;VIA CASALE S. PIO V, 11;ROMA;ROMA;00165;scuolasgb@mclink.it;0666000849     ;41.8922;12.43245;0;1
RM1M079006;SCUOLA MEDIA S. GIOVANNI BATTISTA DE LA SALLE;MM;RM1M079006;SCUOLA MEDIA S. GIOVANNI BATTISTA DE LA SALLE;V.G.B.PAGANO 71;ROMA;ROMA;00167;SEGRETERIA@LASALLEROMA.IT;066622186      ;41.90097;12.42329;0;1
RM1M130006;SCUOLA MEDIA S. GIULIANA FALCONIERI;MM;RM1M130006;SCUOLA MEDIA S. GIULIANA FALCONIERI;V.GUIDUBALDO DAL MONTE 17;ROMA;ROMA;00197;AMMINISTRAZIONE@ISTITUTOFALCONIERI.COM;068070384      ;41.92727;12.4795;0;1
RM1M09700Q;SCUOLA MEDIA S. GIUSEPPE;MM;RM1M09700Q;SCUOLA MEDIA S. GIUSEPPE;V.RABBELLO 15;ROMA;ROMA;00178;secondaria@sangiuseppecab.it;067184277      ;41.84009;12.54825;0;1
RM1M106009;SCUOLA MEDIA S. SISTO VECCHIO;MM;RM1M106009;SCUOLA MEDIA S. SISTO VECCHIO;V.DRUSO 2;ROMA;ROMA;00184;SEGRETERIA@ISTITUTOSANSISTOROMA.IT;0677205175     ;41.88216;12.49798;0;1
RM1M11600X;SCUOLA MEDIA S.GIUSEPPE DE MERODE;MM;RM1M11600X;SCUOLA MEDIA S.GIUSEPPE DE MERODE;V.S.SEBASTIANELLO 3;ROMA;ROMA;00187;SCUOLAMEDIA@SANGIUSEPPEDEMERODE.IT;0669922505     ;41.90679;12.48207;0;1
RM1M028009;SCUOLA MEDIA SACRO CUORE;MM;RM1M028009;SCUOLA MEDIA SACRO CUORE;V.TENUTA S.AGATA 1;ROMA;ROMA;00135;ISTITUTOSACROCUORE@PICCOLEANCELLE.COM;063054767      ;41.93737;12.42874;0;1
RM1M114008;SCUOLA MEDIA SACRO CUORE;MM;RM1M114008;SCUOLA MEDIA SACRO CUORE;P.ZA TRINITA' DEI MONTI 3;ROMA;ROMA;00187;SEGRETERIA@SACROCUORETDM.IT;066792245      ;41.90654;12.48387;0;1
RM1M09300C;SCUOLA MEDIA SACRO CUORE SORELLE DELLA MISERICORDIA;MM;RM1M09300C;SCUOLA MEDIA SACRO CUORE SORELLE DELLA MISERICORDIA;V.A.DA GIUSSANO 89;ROMA;ROMA;00176;SEGRETERIA@SACROCUOREGIUSSANO.IT;0621701549     ;41.88993;12.5348;0;1
RM1M12400V;SCUOLA MEDIA SCUOLA PONTIFICIA PIO IX;MM;RM1M12400V;SCUOLA MEDIA SCUOLA PONTIFICIA PIO IX;VIA DEI CAVALIERI DEL S. SEPOLCRO 1;ROMA;ROMA;00193;SEGRETERIA@SCUOLAPIONONO.ORG;06  68801325   ;41.90191;12.46062;0;1
RM1M03800X;SCUOLA MEDIA SERAPHICUM;MM;RM1M03800X;SCUOLA MEDIA SERAPHICUM;V.DEL SERAFICO 3;ROMA;ROMA;00142;SEGRETERIA@SERAPHICUM.IT;065190102      ;41.82926;12.48221;0;1
RM1M06200R;SCUOLA PARITARIA SEC. PRIMO GRADO VINCENZA ALTAMURA;MM;RM1M06200R;SCUOLA PARITARIA SEC. PRIMO GRADO VINCENZA ALTAMURA;V.DAVID SALINIERI 5;ROMA;ROMA;00154;istituto@scuolaaltamura.it;0651600157     ;41.86479;12.48324;0;1
RMPCQ1500T;SCUOLA PONTIFICIA PIO IX;PC;RMPCQ1500T;SCUOLA PONTIFICIA PIO IX;VIA DEI CAVALIERI DEL SANTO SEPOLCRO 1;ROMA;ROMA;00193;segreteria@scuolapionono.org;0668802655     ;;;0;1
RM1M13900L;SCUOLA SECONDARIA DI I GRADO PARITARIA GIOVANNI PAOLO II;MM;RM1M13900L;SCUOLA SECONDARIA DI I GRADO PARITARIA GIOVANNI PAOLO II;CORSO DUCA DI GENOVA N. 159;ROMA;ROMA;00121;ISTITUTO@ISTITUTOGIOVANNIPAOLO2.IT;065672123      ;41.7342;12.27029;0;1
RM1M128006;SCUOLA SECONDARIA DI I GRADO PARITARIA VILLA FLAMINIA;MM;RM1M128006;SCUOLA SECONDARIA DI I GRADO PARITARIA VILLA FLAMINIA;V.LE DEL VIGNOLA 56;ROMA;ROMA;00196;SEGRETERIA@VILLAFLAMINIA.NET;06322941       ;41.92544;12.46649;0;1
RM1M06900G;SCUOLA SECONDARIA DI I GRADO S. ORSOLA;MM;RM1M06900G;SCUOLA SECONDARIA DI I GRADO S. ORSOLA;VIA LIVORNO 50/A;ROMA;ROMA;00162;SEGRETERIA.ROMA@ORSOLINE.IT;0644246567     ;41.91563;12.52423;0;1
RM1M13300N;SCUOLA SECONDARIA DI I GRADO SAN LEONE MAGNO;MM;RM1M13300N;SCUOLA SECONDARIA DI I GRADO SAN LEONE MAGNO;P.ZA S.COSTANZA 2;ROMA;ROMA;00198;SEGRETERIAROMA@MARISTIMEDITERRANEA.COM;068537041      ;41.92166;12.51601;0;1
RM1M665000;SCUOLA SECONDARIA DI I GRADO ZAVERIA CASSIA;MM;RM1M665000;SCUOLA SECONDARIA DI I GRADO ZAVERIA CASSIA;VIA CORRIDONIA 40;ROMA;ROMA;00156;SEGRETERIA@ZAVERIACASSIA.IT;;41.94126;12.58318;0;1
RM1M13400D;SCUOLA SECONDARIA DI PRIMO GRADO MARIA AUSILIATRICE;MM;RM1M13400D;SCUOLA SECONDARIA DI PRIMO GRADO MARIA AUSILIATRICE;VIA DALMAZIA 12;ROMA;ROMA;00198;SEGRETERIADALMAZIA@TISCALI.IT;068440211      ;41.91597;12.50671;0;1
RM1M09100R;"SCUOLA SECONDARIA DI PRIMO GRADO PARITARIA ""S.G. BOSCO""";MM;RM1M09100R;"SCUOLA SECONDARIA DI PRIMO GRADO PARITARIA ""S.G. BOSCO""";V.LE PALMIRO TOGLIATTI 167;ROMA;ROMA;00175;;0671546419     ;41.85998;12.56988;0;1
RMMM8FM01X;SEC. I GR I.C. ANTONIO VIVALDI;MM;RMIC8FM00V;"IC ""ANTONIO VIVALDI""";VIA MAR ROSSO, 68;ROMA;ROMA;00122;RMIC8FM00V@istruzione.it;065681124;41.73476;12.29576;1;0
RM1MQH500U;SECONDARIA DI I GRADO PARIT. SANTA PAOLA E. CERIOLI;MM;RM1MQH500U;SECONDARIA DI I GRADO PARIT. SANTA PAOLA E. CERIOLI;VIA CASILINA, 631/633;ROMA;ROMA;00177;DIREZIONE@SCUOLACERIOLI.IT;0645426706     ;;;0;1
RMMM8FA01C;SECONDARIA DI PRIMO GRADO;MM;RMIC8FA00B;IC DOMENICO SAVIO;VIA        CASALE DEL FINOCCHIO, 56;ROMA;ROMA;00132;RMIC8FA00B@istruzione.it;0620764796;41.86051;12.69232;1;0
RMMM8FW01G;SECONDARIA I GRADO R. VILLORESI;MM;RMIC8FW00E;NELSON MANDELA;VIA        DELLA PISANA        306;ROMA;ROMA;00163;RMIC8FW00E@istruzione.it;0666156458;41.87586;12.41446;1;0
RMTA06050X;SERENI - PERC. II LIV.;TA;RMTA06000E;EMILIO SERENI;;ROMA;ROMA;;RMTA06000E@istruzione.it;;41.89622;12.64866;1;0
RMMM8EA01T;SETTEMBRINI;MM;RMIC8EA00R;LUIGI SETTEMBRINI;VIA        SEBENICO            1;ROMA;ROMA;00198;RMIC8EA00R@istruzione.it;068549282;41.91836;12.50656;1;0
RMRI02301C;SISTO V;RI;RMIS02300R;DONATO BRAMANTE;VIA DELLA CECCHINA, 20;ROMA;ROMA;00139;RMIS02300R@istruzione.it;06121123505;41.94672;12.5423;1;0
RMMM8EE015;SMS  CESARE PIVA;MM;RMIC8EE004;IC VIA VAL MAGGIA;VIA VAL DI LANZO,187;ROMA;ROMA;00141;RMIC8EE004@istruzione.it;068108622;41.94493;12.52213;1;0
RMMM8EP01R;SMS  P.LE HEGEL;MM;RMIC8EP00Q;IC GIOVANNI FALCONE;P.LE HEGEL, 6;ROMA;ROMA;00137;RMIC8EP00Q@istruzione.it;0686891611;41.93707;12.55901;1;0
RMMM8F001L;"SMS ""A. TOSCANINI""";MM;RMIC8F000G;I.C. VIA CRIVELLI;VIA A. CRIVELLI, 24;ROMA;ROMA;00151;RMIC8F000G@istruzione.it;065826153;41.8682;12.44541;1;0
RMMM8EC01D;"SMS ""J.J. WINCKELMANN""";MM;RMIC8EC00C;I.C. PIAZZA WINCKELMANN;PIAZZA WINCKELMANN, 20;ROMA;ROMA;00162;RMIC8EC00C@istruzione.it;0686219146;41.92187;12.523;1;0
RMMM8CK01C;"SMS ""LODOVICO PAVONI""";MM;RMIC8CK00B;"IC ""VIA F. LAPARELLI 60""";VIA F. LAPARELLI 60;ROMA;ROMA;00176;RMIC8CK00B@istruzione.it;0624419571;41.87978;12.53959;1;0
RMMM8E901C;SMS BORGHESIANA-PANTANO;MM;RMIC8E900B;I. C. ELISA SCALA;VIA NICOTERA N.15;ROMA;ROMA;00132;RMIC8E900B@istruzione.it;0687642415;41.87127;12.69195;1;0
RMMM8D901T;SMS ESOPO;MM;RMIC8D900R;I.C. VIA VOLSINIO;VIA VOLSINIO, 23;ROMA;ROMA;00199;RMIC8D900R@istruzione.it;0694528968;41.92378;12.50866;1;0
RMMM8EX01R;SMS FERRUCCIO PARRI;MM;RMIC8EX00Q;IC OLCESE;LARGO APPIO CHIEREGATTI, 10;ROMA;ROMA;00155;RMIC8EX00Q@istruzione.it;062286617;41.88794;12.59034;1;0
RMMM8E301D;SMS GIOVANNI VERGA;MM;RMIC8E300C;LARGO COCCONI;VIA G. GUSSONE, 5;ROMA;ROMA;00171;RMIC8E300C@istruzione.it;062593492;41.89173;12.56386;1;0
RMMM8F101C;SMS LARGO DINO BUZZATI;MM;RMIC8F100B;I.C. LARGO DINO BUZZATI;LARGO DINO BUZZATI, 13;ROMA;ROMA;00144;RMIC8F100B@istruzione.it;0645419421;41.81719;12.47533;1;0
RMMM8GR01N;SMS PABLO NERUDA;MM;RMIC8GR00L;IC PABLO NERUDA;VIA CASAL DEL MARMO, 216;ROMA;ROMA;00135;RMIC8GR00L@istruzione.it;0699180127;41.95475;12.40213;1;0
RMMM8EK01N;SMS STEFANIA QUARANTA;MM;RMIC8EK00L;ANNA FRAENTZEL CELLI;VIA F. FIORENTINI, 48;ROMA;ROMA;00159;RMIC8EK00L@istruzione.it;;41.90961;12.55497;1;0
RMMM8GC01P;SMS VIA AMULIO, 4;MM;RMIC8GC00N;"""GIOVANNI CAGLIERO""";VIA AMULIO 4;ROMA;ROMA;00181;RMIC8GC00N@istruzione.it;067803252;41.87192;12.53168;1;0
RMMM8EH01L;SMS VIA CECCO ANGIOLIERI;MM;RMIC8EH00G;IC VIA SAVINIO;VIA CECCO ANGIOLIERI, 15;ROMA;ROMA;00137;RMIC8EH00G@istruzione.it;0687137123;41.94578;12.54401;1;0
RMMM8ES01N;SMS VIA CORINALDO;MM;RMIC8ES00L;MAHATMA GANDHI;VIA CORINALDO, 41;ROMA;ROMA;00156;RMIC8ES00L@istruzione.it;064112298;41.94671;12.60103;1;0
RMMM8GF016;SMS VIA DELLA SETA;MM;RMIC8GF005;IC VIA DEL CALICE;;ROMA;ROMA;;RMIC8GF005@istruzione.it;;41.92283;12.50143;1;0
RMMM8GY01T;SMS VIA DELLE VIGNE;MM;RMIC8GY00R;IC SANTA BEATRICE;VIA DELLE VIGNE, 190;ROMA;ROMA;00148;RMIC8GY00R@istruzione.it;066556459;41.84657;12.42051;1;0
RMMM8FC014;SMS VIA DI TORRENOVA;MM;RMIC8FC003;IC VIA MEROPE;VIA DI TORRENOVA, 147;ROMA;ROMA;00133;RMIC8FC003@istruzione.it;0620686518;41.87398;12.61879;1;0
RMMM8GA013;SMS VIA L. LEONARDI;MM;RMIC8GA002;IC VIA P. STABILINI;VIA LIBERO LEONARDI, 178;ROMA;ROMA;00173;RMIC8GA002@istruzione.it;067219020;41.85325;12.59339;1;0
RMMM8FE01Q;SMS VIA MACINGHI STROZZI;MM;RMIC8FE00P;IC PIAZZA DAMIANO SAULI;VIA MACINGHI STROZZI, 51;ROMA;ROMA;00154;RMIC8FE00P@istruzione.it;0695955042;41.86003;12.48692;1;0
RMMM8E4019;SMS VIA MARELLI;MM;RMIC8E4008;IC NICOLA CALIPARI;VIA ERCOLE MARELLI, 19;ROMA;ROMA;00133;RMIC8E4008@istruzione.it;062054109;41.85968;12.64466;1;0
RMMM8FG01B;SMS VIA R. GIGLIOZZI;MM;RMIC8FG00A;IC VIA SANTI SAVARINO;VIA ROMOLO GIGLIOZZI 35;ROMA;ROMA;00128;RMIC8FG00A@istruzione.it;0650804020;41.77737;12.4338;1;0
RMMM8G301P;SMS VIA S. BORGIA;MM;RMIC8G300N;IC ROSETTA ROSSI;VIA STEFANO BORGIA 110;ROMA;ROMA;00168;RMIC8G300N@istruzione.it;063070987;41.9176;12.41481;1;0
RMMM8E801L;SMS VIA S.B. PLATANI;MM;RMIC8E800G;FRANCESCA MORVILLO;VIA SAN BIAGIO PLATANI, 248;ROMA;ROMA;00133;RMIC8E800G@istruzione.it;062006685;41.87325;12.64658;1;0
RMMM8GD01E;SMS VIA SIBARI, 5;MM;RMIC8GD00D;IC ALESSANDRO MANZONI;VIA SIBARI, 5;ROMA;ROMA;00183;RMIC8GD00D@istruzione.it;0670495474;41.88216;12.50369;1;0
RMMM8ER01C;SMS VIA T. BUAZZELLI;MM;RMIC8ER00B;IC VIA N.M. NICOLAI;VIA TINO BUAZZELLI, 120;ROMA;ROMA;00137;RMIC8ER00B@istruzione.it;06824430;41.94327;12.56828;1;0
RMMM8EL01D;SMS VIA TEDESCHI;MM;RMIC8EL00C;IC VIA TEDESCHI;VIA TEDESCHI, 85;ROMA;ROMA;00159;RMIC8EL00C@istruzione.it;;41.91285;12.53694;1;0
RMMM8E6011;SMS VIA V. PONTI;MM;RMIC8E600X;IC ANTONIO MONTINARO;VIA VITALIANO PONTI 30;ROMA;ROMA;00169;RMIC8E600X@istruzione.it;0623236761;41.86938;12.57827;1;0
RMMM8FK018;"SMS""GIULIANO DA SANGALLO""";MM;RMIC8FK007;IC VIA GIULIANO DA SANGALLO;VIA GIULIANO DA SANGALLO, 11;ROMA;ROMA;00121;RMIC8FK007@istruzione.it;065691345;41.7323;12.27326;1;0
RMPC180004;SOCRATE;PC;RMPC180004;SOCRATE;V.         PADRE REGINALDO GIULIANI 15;ROMA;ROMA;00154;RMPC180004@istruzione.it;06121125465;41.86646;12.49308;1;0
RM1MLB500C;ST. PHILIP SCHOOL;MM;RM1MLB500C;ST. PHILIP SCHOOL;Via Appia Nuova 254;ROMA;ROMA;00183;;0670613374     ;;;0;1
RMRC11101A;STENDHAL;RC;RMIS11100B;VIA C. EMERY, 97;VIA CASSIA 726/734;ROMA;ROMA;00189;RMIS11100B@istruzione.it;06121128465;41.96483;12.44429;1;0
RM1M07200B;SUORE OBLATE SACRA FAMIGLIA;MM;RM1M07200B;SUORE OBLATE SACRA FAMIGLIA;V.DEI CARRARESI 3;ROMA;ROMA;00164;oblatesacrafamiglia@gmail.com;066638795      ;41.88294;12.42329;0;1
RMMM8B6015;SVEVO;MM;RMIC8B6004;"""RITA LEVI MONTALCINI""";VIA        SALVIOLI            20;ROMA;ROMA;00175;RMIC8B6004@istruzione.it;0671544654;41.86073;12.56631;1;0
RMPMT1500R;San Gabriele;PM;RMPMT1500R;San Gabriele;VIA DELLA GIUSTINIANA, 1200;ROMA;ROMA;00123;ISTITUTOSANGABRIELE@GMAIL.COM;06302831       ;41.98413;12.4169;0;1
RM1M17500P;Scuola Sec. I Gr. Acorn International school ;MM;RM1M17500P;Scuola Sec. I Gr. Acorn International school ;Via della Giustiniana 1200;ROMA;ROMA;00189;info@acornhouse.school;;;;0;1
RMPC220009;TACITO;PC;RMPC220009;TACITO;VIA        GIORDANO BRUNO 4;ROMA;ROMA;00195;RMPC220009@istruzione.it;06121123858;41.91071;12.45287;1;0
RMPC250005;TASSO;PC;RMPC250005;TASSO;VIA        SICILIA 168;ROMA;ROMA;00187;RMPC250005@istruzione.it;06121128305;41.91027;12.4975;1;0
RMTD11801C;TECNICO - LUIGI EINAUDI;TD;RMIS118006;L.EINAUDI;VIA SANTA MARIA ALLE FORNACI, 1;ROMA;ROMA;00165;RMIS118006@istruzione.it;06121128585;41.89785;12.45611;1;0
RMTD01301C;"TECNICO COMMERCIALE ""LEONARDO DA VINCI""";TD;RMIS013006;ISTITUTO DI ISTRUZIONE LEONARDO DA VINCI;VIA CAVOUR, 258;ROMA;ROMA;00184;RMIS013006@istruzione.it;06121128185;41.89406;12.49094;1;0
RMMM8CU014;TEODORO MOMMSEN;MM;RMIC8CU003;"""VIA TEODORO MOMMSEN, 20""";LARGO PIETRO TACCHI VENTURI, 5;ROMA;ROMA;00179;RMIC8CU003@istruzione.it;06787849;41.86763;12.52689;1;0
RMPC23000X;TERENZIO MAMIANI;PC;RMPC23000X;TERENZIO MAMIANI;VIALE DELLE MILIZIE, 30;ROMA;ROMA;00192;RMPC23000X@istruzione.it;061211124145;41.9126;12.46317;1;0
RMMM8B1012;TRIGORIA;MM;RMIC8B1001;MARTA RUSSO;;ROMA;ROMA;00128;RMIC8B1001@istruzione.it;;41.90035;12.49762;1;0
RMPS450002;TULLIO LEVI-CIVITA D.P.R.;PS;RMPS450002;TULLIO LEVI-CIVITA D.P.R.;VIA TORRE ANNUNZIATA, 11-13;ROMA;ROMA;00177;RMPS450002@istruzione.it;06121122455;41.89055;12.54887;1;0
RMTD55500T;TUSCOLANO;TD;RMTD55500T;TUSCOLANO;VIA MAIA 19;ROMA;ROMA;00175;segreteria@itctuscolano.it;0676961242     ;41.86539;12.54725;0;1
RMMM80801G;U. FOSCOLO;MM;RMIC80800E;I.C. REGINA MARGHERITA;VIA MADONNA DELL'ORTO 2;ROMA;ROMA;00153;RMIC80800E@istruzione.it;0658390881;41.88654;12.4752;1;0
RMMM8FH017;U. NISTRI;MM;RMIC8FH006;DAVID SASSOLI;VIA A. RENZINI, 50;ROMA;ROMA;00128;RMIC8FH006@istruzione.it;065070707;41.78091;12.44443;1;0
RMMM8BL012;V. ALFIERI;MM;RMIC8BL001;ALFIERI LANTE DELLA ROVERE;VIA SALARIA 159;ROMA;ROMA;00198;RMIC8BL001@istruzione.it;068417958;41.91795;12.49717;1;0
RMTD030005;V. ARANGIO RUIZ;TD;RMTD030005;V. ARANGIO RUIZ;VIALE AFRICA, 109;ROMA;ROMA;00144;RMTD030005@istruzione.it;06121124080;41.82512;12.47325;1;0
RMMM8B0016;V. BACHELET;MM;RMIC8B0005;G. PALLAVICINI;VIA BEATA VERGINE DEL CARMELO;ROMA;ROMA;00144;RMIC8B0005@istruzione.it;065294077;41.80792;12.4434;1;0
RMMM84601A;V. DI TORREVECCHIA, 675;MM;RMIC846009;"""PIO LA TORRE""";V. DI TORREVECCHIA, 675;ROMA;ROMA;00168;RMIC846009@istruzione.it;066274880;41.92023;12.41004;1;0
RMRH07050V;V. GIOBERTI PERCORSO II LIVELLO;RH;RMRH07000D;VINCENZO GIOBERTI;VIA DELLA PAGLIA 50;ROMA;ROMA;00153;RMRH07000D@istruzione.it;06 121128025;41.8896;12.46802;1;0
RMRC121011;V. WOOLF;RC;RMIS121002;GIORGI - WOOLF;CIRC/NE    CASILINA 119;ROMA;ROMA;00176;RMIS121002@istruzione.it;0621704798;41.88807;12.52776;1;0
RMTL032018;VALADIER;TL;RMIS03200G;"I.I.S. ""TOMMASO SALVINI""";VIA  CAPOSILE 1;ROMA;ROMA;00195;RMIS03200G@istruzione.it;06121122985;41.91946;12.46414;1;0
RMTF081019;VALLAURI - HERTZ;TF;RMIS08100R;ENZO FERRARI;VIA        GROTTAFERRATA,76;ROMA;ROMA;00178;RMIS08100R@istruzione.it;06121122325;41.86348;12.53798;1;0
RMRF103015;VERNE-SOCIO SANITARIO (EX DIAZ) EUR;RF;RMIS10300C;GIULIO VERNE - I.I.S.VIA DI SAPONARA 150;PIAZZALE TARANTELLI 18;ROMA;ROMA;00144;RMIS10300C@istruzione.it;06121126240;41.81958;12.43736;1;0
RMRH040503;VESPUCCI - PERCORSO II LIVELLO;RH;RMRH04000N;AMERIGO VESPUCCI;VIA FACCHINETTI, 42;ROMA;ROMA;00159;RMRH04000N@istruzione.it;;;;1;0
RMMM8EJ01T;VIA  PINTOR;MM;RMIC8EJ00R;IC  ALCIDE DE GASPERI;VIA   J.   PINTOR              6;ROMA;ROMA;00137;RMIC8EJ00R@istruzione.it;0687136334;41.94877;12.54294;1;0
RMMM8CH01B;VIA A. SEVERO, 208;MM;RMIC8CH00A;VIA SALVATORE PINCHERLE 140;VIA        A. SEVERO           208;ROMA;ROMA;00145;RMIC8CH00A@istruzione.it;065411303;41.85375;12.48592;1;0
RMMM84401P;VIA BOCCEA;MM;RMIC84400N;VIA BOCCEA, 590;VIA        BOCCEA              590;ROMA;ROMA;00166;RMIC84400N@istruzione.it;0661568029;41.91846;12.37792;1;0
RMMM81701A;VIA BONGHI,30;MM;RMIC817009;VIA GUICCIARDINI, 8;VIA BONGHI, 30;ROMA;ROMA;00184;RMIC817009@istruzione.it;;41.89039;12.501;1;0
RMMM8B401D;VIA C.PERAZZI 30;MM;RMIC8B400C;BRUNO MUNARI;VIA        C. PERAZZI          30;ROMA;ROMA;00139;RMIC8B400C@istruzione.it;0687136912;41.95638;12.52588;1;0
RMMM8CN01X;VIA CANTIANO 131;MM;RMIC8CN00V;"IC ""SAN VITTORINO-CORCOLLE""";VIA CANTIANO 131;ROMA;ROMA;00132;RMIC8CN00V@istruzione.it;062203507;41.91192;12.72801;1;0
RMRH06101Q;VIA CESARE LOMBROSO;RH;RMIS06100G;VIA DOMIZIA LUCILLA;VIA CESARE LOMBROSO,118;ROMA;ROMA;00168;RMIS06100G@istruzione.it;0635506798;41.93976;12.42018;1;0
RMMM8CP01G;VIA CITTA S.ANGELO 31;MM;RMIC8CP00E;IC CASTELVERDE;VIA CITTA S.ANGELO 31;ROMA;ROMA;00132;RMIC8CP00E@istruzione.it;;41.90962;12.70151;1;0
RMMM8CW01Q;VIA DE FINETTI;MM;RMIC8CW00P;BRUNO DE FINETTI;VIA DE FINETTI 170/A;ROMA;ROMA;00134;RMIC8CW00P@istruzione.it;0650162337;41.79171;12.48329;1;0
RMMM82401D;VIA DE MAGISTRIS;MM;RMIC82400C;I.C. ALBERTO MANZI;VIA DEL PIGNETO 301;ROMA;ROMA;00176;RMIC82400C@istruzione.it;06299109;41.88607;12.5369;1;0
RMMM83101L;VIA DEL FRINGUELLO, 19;MM;RMIC83100G;IC VIA DELLE ALZAVOLE;VIA DEL FRINGUELLO, 19;ROMA;ROMA;00169;RMIC83100G@istruzione.it;06261491;41.86815;12.59606;1;0
RMMM8G6016;VIA DEL QUADRARO;MM;RMIC8G6005;I.C. GIGI PROIETTI;VIA DEL QUADRARO, 102;ROMA;ROMA;00174;RMIC8G6005@istruzione.it;06768044;41.85419;12.54937;1;0
RMMM8FU01X;VIA DELLA NOCETTA;MM;RMIC8FU00V;"I.C. ""MARGHERITA HACK""";VIA DELLA NOCETTA 100;ROMA;ROMA;;RMIC8FU00V@istruzione.it;0666158953;41.88265;12.43289;1;0
RMMM8B201T;VIA DELLE COSTELLAZIONI;MM;RMIC8B200R;ORSA MAGGIORE;VIA DELLE COSTELLAZIONI;ROMA;ROMA;00144;RMIC8B200R@istruzione.it;;41.81455;12.44629;1;0
RMMM8ET01D;VIA DIGNANO D'ISTRIA;MM;RMIC8ET00C;I.C. VIALE VENEZIA GIULIA;V.D.D'ISTRIA 105-V.TORRE ANNUNZIATA12;ROMA;ROMA;00177;RMIC8ET00C@istruzione.it;0621710096;41.89086;12.54782;1;0
RMMM8D8012;VIA FLAMINIA 223;MM;RMIC8D8001;IC VIA P.A. MICHELI;VIA FLAMINIA, 223;ROMA;ROMA;00196;RMIC8D8001@istruzione.it;063227435;41.92331;12.47097;1;0
RMMM8FX01B;VIA LONGHENA;MM;RMIC8FX00A;PINO PUGLISI;VIA DI BRAVETTA, 383 E 395;ROMA;ROMA;00164;RMIC8FX00A@istruzione.it;066663771;41.87632;12.42659;1;0
RMMM8EY01L;VIA LUCA GHINI;MM;RMIC8EY00G;VIA LUCA GHINI;VIA LUCA GHINI, 58;ROMA;ROMA;00172;RMIC8EY00G@istruzione.it;;41.8766;12.58067;1;0
RMMM8GS01V;VIA MAESTRE PIE FILIPPINI;MM;RMIC8GS00T;IC OCTAVIA;VIA MAESTRE PIE FILIPPINI, 5;ROMA;ROMA;00135;RMIC8GS00T@istruzione.it;0630829140;41.96185;12.40631;1;0
RMMM83201C;VIA MELIZZANO;MM;RMIC83200B;MARIA GRAZIA CUTULI;VIA MELIZZANO,94;ROMA;ROMA;00132;RMIC83200B@istruzione.it;0622424045;41.89024;12.63365;1;0
RMPC016011;VIA NISTRI;PC;RMIS01600N;VIA DELLE SETTE CHIESE, 259;VIA NISTRI, N. 11;ROMA;ROMA;00146;RMIS01600N@istruzione.it;06121127340;41.85368;12.46975;1;0
RMMM8F3014;VIA NITTI;MM;RMIC8F3003;I.C. VIA NITTI;VIA F.S.NITTI, 61;ROMA;ROMA;00191;RMIC8F3003@istruzione.it;0636304908;41.94714;12.47294;1;0
RMTE02701T;VIA NOVARA, 20;TE;RMIS027004;I.I.S. GIOSUE' CARDUCCI;VIA NOVARA, N. 20;ROMA;ROMA;00198;RMIS027004@istruzione.it;0685355333;41.91472;12.50668;1;0
RMMM8GM01E;VIA ORBASSANO, 69;MM;RMIC8GM00D;IC VIA CASALOTTI, 259;VIA ORBASSANO, 69;ROMA;ROMA;00166;RMIC8GM00D@istruzione.it;0661521580;41.91675;12.38603;1;0
RMMM820016;VIA RIVISONDOLI, 39;MM;RMIC820005;GIOVANNI PALOMBINI;VIA RIVISONDOLI, 39;ROMA;ROMA;00156;RMIC820005@istruzione.it;0686894489;41.9232;12.57327;1;0
RMMM8CT018;VIA RUGANTINO 91;MM;RMIC8CT007;I.C. VIA RUGANTINO 91;VIA        RUGANTINO           91;ROMA;ROMA;00169;RMIC8CT007@istruzione.it;06261801;41.86415;12.57956;1;0
RMMM847016;VIA S. MARIA DELLE FORNACI, 1;MM;RMIC847005;IC P.ZZA BORGONCINI DUCA, 5;VIA S. MARIA DELLE FORNACI, 1;ROMA;ROMA;00165;RMIC847005@istruzione.it;06636355;41.89791;12.45598;1;0
RMMM82801R;VIA SAN MATTEO;MM;RMIC82800Q;PIETRO M.CORRADINI;VIA SAN MATTEO, 110;ROMA;ROMA;00044;RMIC82800Q@istruzione.it;0672650526;41.82156;12.64853;1;0
RMMM8G901N;VIA SANTA MARIA GORETTI;MM;RMIC8G900L;MONTESSORI - M. C. PINI;VIA SANTA MARIA GORETTI, 41;ROMA;ROMA;00199;RMIC8G900L@istruzione.it;;;;1;0
RMTD108506;VIA SILVESTRI - PERC. II LIV.;TD;RMTD10801T;CECCHERELLI;;ROMA;ROMA;;RMIS10800G@istruzione.it;;41.92283;12.50143;1;0
RMTF10850C;VIA SILVESTRI - PERC. II LIV.;TF;RMTF108014;VOLTA;;ROMA;ROMA;;RMIS10800G@istruzione.it;;41.92283;12.50143;1;0
RMMM8GV01A;VIA TAGGIA;MM;RMIC8GV009;I.C. VIA S.C.DONATI;VIA TAGGIA, 70;ROMA;ROMA;00168;RMIC8GV009@istruzione.it;063017567;41.9306;12.42159;1;0
RMMM8GT01P;VIA VALLOMBROSA;MM;RMIC8GT00N;I.C. VIA TRIONFALE;VIA VALLOMROSA, 31;ROMA;ROMA;00135;RMIC8GT00N@istruzione.it;063314511;41.95072;12.44311;1;0
RMMM8BY01N;VIALE CAMILLO SABATINI, 111;MM;RMIC8BY00L;M.RICCI VIA CINA 4;VIALE CAMILLO SABATINI, 111;ROMA;ROMA;00144;RMIC8BY00L@istruzione.it;065298344;41.8193;12.44146;1;0
RMMM8B5019;VIALE F.SANTI,81;MM;RMIC8B5008;TULLIO DE MAURO;VIALE F.SANTI,81 -  ROMA;ROMA;ROMA;00155;RMIC8B5008@istruzione.it;064067822;41.91246;12.56663;1;0
RMPS09201N;VICOLO DEL CASAL LUMBROSO;PS;RMIS092007;VICOLO DEL CASAL LUMBROSO;VICOLO DEL CASAL LUMBROSO, 129;ROMA;ROMA;00166;RMIS092007@istruzione.it;06121127720;41.86708;12.37183;1;0
RMMM84301V;VINCENZO CARDARELLI;MM;RMIC84300T;IC PIERO TERRACINA;VIA E.PALADINI, 12;ROMA;ROMA;00149;RMIC84300T@istruzione.it;065584962;41.86373;12.45898;1;0
RMRH07000D;VINCENZO GIOBERTI;RH;RMRH07000D;VINCENZO GIOBERTI;VIA DELLA PAGLIA, 50;ROMA;ROMA;00153;RMRH07000D@istruzione.it;06121128025;41.8883;12.47523;1;0
RMMM80601X;VIRGILIO;MM;RMIC80600V;ISTITUTO COMPRENSIVO VIRGILIO;VIA        GIULIA              25;ROMA;ROMA;00186;RMIC80600V@istruzione.it;066861390;41.89631;12.46798;1;0
RMPC27000A;VIRGILIO;PC;RMPC27000A;VIRGILIO;VIA        GIULIA 38;ROMA;ROMA;00186;RMPC27000A@istruzione.it;06121125965;41.8961;12.46766;1;0
RMPSP7500N;VIRGINIA CENTURIONE BRACELLI;PS;RMPSP7500N;VIRGINIA CENTURIONE BRACELLI;VIA MATTIA BATTISTINI 256;ROMA;ROMA;00167;preside@scuolabracelli.it;066278759      ;;;0;1
RMPC00500D;VISCONTI;PC;RMPC00500D;VISCONTI;VIA NAZARIO SAURO, 1;ROMA;ROMA;00195;segreteria@istitutovisconti.it;0639741489     ;41.9134;12.45285;0;1
RMPS305007;VISCONTI;PS;RMPS305007;VISCONTI;V. NAZARIO SAURO 1;ROMA;ROMA;00192;segreteria@istitutovisconti.it;0639741489     ;41.91326;12.45303;0;1
RMPM180008;VITTORIA COLONNA;PM;RMPM180008;VITTORIA COLONNA;VIA        DELL'ARCO DEL MONTE 99;ROMA;ROMA;00186;RMPM180008@istruzione.it;0612112516;41.89437;12.4734;1;0
RMTD10901N;VITTORIO BACHELET;TD;RMIS10900B;EINSTEIN - BACHELET;VIA DI NAZARETH, 150;ROMA;ROMA;00166;RMIS10900B@istruzione.it;06121124395;41.90681;12.40374;1;0
RMPM160003;VITTORIO GASSMAN;PM;RMPM160003;VITTORIO GASSMAN;VIA PIETRO MAFFI, 57;ROMA;ROMA;00168;RMPM160003@istruzione.it;06121128105;41.9238;12.41801;1;0
RMTF108014;VOLTA;TF;RMIS10800G;VIA SILVESTRI, 301;VIA        DI BRAVETTA 541;ROMA;ROMA;00164;RMIS10800G@istruzione.it;06-121124020;41.87291;12.4229;1;0
RMMM85101T;W. A. MOZART;MM;RMIC85100R;W. A. MOZART;V.LE CASTEL PORZIANO 516-VIA CLES 34;ROMA;ROMA;00124;RMIC85100R@istruzione.it;0650914612;41.73891;12.3778;1;0
RM1M2E5007;aurora institute;MM;RM1M2E5007;aurora institute;VIA TOMMASO TRAETTA 68;ROMA;ROMA;00124;;0687617108     ;41.7343;12.3513;0;1
